{"type":"FeatureCollection", "features": [
{"type":"Feature","geometry":{"type":"MultiPolygon","coordinates":[[[[0.1123,43.5175],[0.1132,43.5374],[0.0808,43.5243],[0.0897,43.5106],[0.1123,43.5175]]],[[[-0.0066,43.5928],[0.0283,43.5923],[0.0249,43.6257],[-0.0036,43.6217],[-0.03,43.6599],[-0.0436,43.6411],[-0.0335,43.6048],[-0.0066,43.5928]]],[[[-0.293,43.7397],[-0.1973,43.7475],[-0.2125,43.7237],[-0.2505,43.708],[-0.2386,43.6931],[-0.1562,43.6586],[-0.0979,43.661],[-0.1029,43.6775],[-0.1771,43.6961],[-0.1949,43.7072],[-0.1373,43.7311],[-0.111,43.7115],[-0.0646,43.6954],[-0.041,43.703],[-0.0211,43.6945],[0.0412,43.7147],[0.0549,43.7389],[0.0396,43.7572],[0.0447,43.7827],[0.0998,43.7602],[0.1288,43.7669],[0.1413,43.7811],[0.1908,43.7886],[0.2129,43.7753],[0.1973,43.748],[0.1604,43.7366],[0.2119,43.6938],[0.233,43.6812],[0.2323,43.6562],[0.2459,43.6304],[0.2295,43.5901],[0.212,43.5719],[0.1898,43.5658],[0.193,43.5414],[0.1985,43.5474],[0.2453,43.5331],[0.2616,43.5437],[0.2837,43.5421],[0.2752,43.565],[0.3253,43.5584],[0.363,43.5367],[0.3616,43.5593],[0.3833,43.5686],[0.4269,43.5484],[0.4331,43.5332],[0.4592,43.5344],[0.4656,43.5235],[0.4964,43.5178],[0.4903,43.4892],[0.5257,43.4854],[0.5384,43.5194],[0.5609,43.5216],[0.5648,43.5019],[0.6304,43.5045],[0.6242,43.5363],[0.6481,43.5444],[0.6828,43.5383],[0.6923,43.546],[0.675,43.5697],[0.6927,43.5894],[0.7069,43.6415],[0.6915,43.6484],[0.7199,43.6798],[0.7528,43.6796],[0.775,43.7021],[0.7674,43.7138],[0.7943,43.73],[0.7812,43.7541],[0.7459,43.7539],[0.7461,43.7677],[0.7238,43.7798],[0.7395,43.7995],[0.7502,43.8603],[0.7086,43.8918],[0.7088,43.9464],[0.7252,43.9678],[0.6926,43.9792],[0.6735,43.9934],[0.6494,43.993],[0.6019,44.018],[0.6317,44.0495],[0.6013,44.0781],[0.5757,44.0759],[0.5663,44.06],[0.5385,44.0529],[0.4856,44.0592],[0.4465,44.089],[0.4248,44.0836],[0.3784,44.0944],[0.306,44.1017],[0.2805,44.1222],[0.2849,44.1344],[0.2508,44.141],[0.2373,44.13],[0.2157,44.1363],[0.19,44.1382],[0.175,44.1226],[0.1361,44.1242],[0.1368,44.1098],[0.1009,44.0866],[0.0718,44.0252],[0.0348,44.0391],[0.0044,44.0367],[0.005,44.0234],[-0.0118,44.005],[-0.0361,43.9978],[-0.0812,44.0155],[-0.1118,44.0097],[-0.1788,44.0211],[-0.1981,44.0301],[-0.2734,44.0362],[-0.2774,44.0131],[-0.29,44.0008],[-0.3033,43.969],[-0.3195,43.9641],[-0.3431,43.9286],[-0.3292,43.9037],[-0.3233,43.8772],[-0.3048,43.8589],[-0.3628,43.8205],[-0.3913,43.7905],[-0.3191,43.7842],[-0.3353,43.7626],[-0.3358,43.7537],[-0.293,43.7397]]]]},"properties":{"nom":"ARMAGNAC"}},
{"type":"Feature","geometry":{"type":"MultiPolygon","coordinates":[[[[-0.7188,45.3275],[-0.6443,45.3217],[-0.5945,45.3212],[-0.569,45.3315],[-0.5711,45.2999],[-0.5134,45.2864],[-0.4863,45.2936],[-0.4473,45.2864],[-0.4154,45.2691],[-0.425,45.2484],[-0.4052,45.2397],[-0.4209,45.2086],[-0.4029,45.1904],[-0.3908,45.1556],[-0.3627,45.1704],[-0.3374,45.1657],[-0.3076,45.1497],[-0.2753,45.1414],[-0.2457,45.1082],[-0.2189,45.1072],[-0.192,45.0946],[-0.1415,45.0903],[-0.1297,45.104],[-0.0876,45.1216],[-0.0652,45.1001],[-0.0484,45.0979],[-0.0275,45.1138],[-0.0035,45.1196],[0.0417,45.1154],[0.072,45.0748],[0.0785,45.0854],[0.1161,45.0998],[0.1387,45.1465],[0.1638,45.1557],[0.176,45.1781],[0.1716,45.204],[0.1523,45.2158],[0.1722,45.2519],[0.2065,45.266],[0.221,45.2905],[0.2495,45.2887],[0.2666,45.298],[0.2694,45.3152],[0.2508,45.3747],[0.2775,45.4272],[0.2939,45.4342],[0.3078,45.4609],[0.3547,45.4652],[0.433,45.5019],[0.4676,45.5389],[0.4979,45.5456],[0.4989,45.565],[0.5163,45.5882],[0.4962,45.6229],[0.4658,45.6371],[0.432,45.6408],[0.4263,45.6549],[0.3906,45.6706],[0.3731,45.6921],[0.3688,45.7146],[0.3285,45.7112],[0.3134,45.7164],[0.3023,45.7424],[0.3826,45.7438],[0.3962,45.7617],[0.389,45.7857],[0.3613,45.8019],[0.3282,45.8033],[0.3269,45.8338],[0.3117,45.8436],[0.3222,45.8652],[0.3441,45.8806],[0.298,45.918],[0.2757,45.9174],[0.2679,45.9353],[0.3019,45.9693],[0.2675,45.9683],[0.2553,45.9968],[0.2006,45.9926],[0.1982,46.011],[0.1696,46.0002],[0.16,46.0093],[0.1247,46.0135],[0.1337,46.0314],[0.096,46.0428],[0.0646,46.0161],[-0.01,46.0074],[-0.0229,46.0188],[-0.0456,46.014],[-0.0664,45.981],[-0.1031,45.9697],[-0.1357,45.9787],[-0.1392,45.9994],[-0.1587,46.0051],[-0.1634,46.0375],[-0.2126,46.0441],[-0.273,46.0573],[-0.2817,46.08],[-0.3308,46.0826],[-0.3629,46.0756],[-0.3837,46.1178],[-0.4384,46.1231],[-0.4494,46.131],[-0.4269,46.1607],[-0.4361,46.1911],[-0.4575,46.1932],[-0.4524,46.22],[-0.4361,46.2311],[-0.456,46.2541],[-0.4905,46.2321],[-0.5253,46.2313],[-0.5247,46.2036],[-0.6161,46.2211],[-0.6097,46.2479],[-0.6498,46.2465],[-0.7028,46.2246],[-0.7519,46.2453],[-0.7354,46.268],[-0.7462,46.2791],[-0.8113,46.2856],[-0.8528,46.2934],[-0.8648,46.3276],[-0.8871,46.3269],[-0.9199,46.302],[-0.904,46.2764],[-0.9166,46.2564],[-0.9639,46.2666],[-1.0041,46.2343],[-1.0499,46.2499],[-1.0485,46.2634],[-1.1186,46.2615],[-1.1758,46.2217],[-1.1992,46.2128],[-1.1992,46.1942],[-1.2307,46.1659],[-1.2265,46.1476],[-1.2067,46.146],[-1.1632,46.1557],[-1.164,46.1417],[-1.101,46.0942],[-1.0891,46.054],[-1.0634,46.0487],[-1.053,46.0038],[-1.0828,45.9958],[-1.084,45.9795],[-1.0695,45.9496],[-1.0731,45.9159],[-1.1059,45.8669],[-1.1251,45.8573],[-1.1535,45.8623],[-1.1675,45.8459],[-1.1373,45.82],[-1.1554,45.8024],[-1.192,45.7893],[-1.2125,45.7944],[-1.2435,45.7799],[-1.2377,45.7091],[-1.2285,45.6942],[-1.1997,45.6946],[-1.1611,45.6758],[-1.116,45.6475],[-1.0459,45.6196],[-1.0255,45.6232],[-0.9956,45.5982],[-0.9886,45.5754],[-0.9624,45.5567],[-0.9323,45.5479],[-0.8476,45.4988],[-0.8017,45.4595],[-0.7562,45.406],[-0.7343,45.3688],[-0.7188,45.3275]]],[[[-1.2082,45.851],[-1.1884,45.8864],[-1.232,45.923],[-1.227,45.9418],[-1.2415,45.9547],[-1.2345,45.9823],[-1.2459,45.9899],[-1.2843,45.9876],[-1.3146,45.9938],[-1.3309,46.0085],[-1.3692,46.0292],[-1.3703,46.0394],[-1.4131,46.0466],[-1.3874,45.9941],[-1.3956,45.9781],[-1.3857,45.9525],[-1.35,45.9251],[-1.2916,45.8987],[-1.2689,45.8813],[-1.2519,45.8529],[-1.2456,45.8219],[-1.231,45.8018],[-1.1955,45.8296],[-1.2082,45.851]]],[[[-1.284,46.1454],[-1.2815,46.1647],[-1.2908,46.1857],[-1.3235,46.1877],[-1.3641,46.207],[-1.4277,46.2053],[-1.4146,46.2306],[-1.4594,46.2283],[-1.4927,46.2051],[-1.5084,46.2267],[-1.475,46.236],[-1.4887,46.252],[-1.5144,46.2574],[-1.5572,46.2328],[-1.5352,46.2036],[-1.5049,46.1934],[-1.4689,46.2033],[-1.3928,46.1774],[-1.3536,46.1557],[-1.3096,46.1432],[-1.284,46.1454]]]]},"properties":{"nom":"COGNAC"}},
{"type":"Feature","geometry":{"type":"Polygon","coordinates":[[[3.8104,43.5316],[3.7965,43.5326],[3.7715,43.5149],[3.7528,43.492],[3.7153,43.4576],[3.7069,43.4394],[3.725,43.4161],[3.7809,43.4338],[3.8261,43.4666],[3.8299,43.4702],[3.8304,43.4707],[3.8604,43.4925],[3.8289,43.5221],[3.8104,43.5316]]]},"properties":{"nom":"VIN DOUX NATURELS"}},
{"type":"Feature","geometry":{"type":"MultiPolygon","coordinates":[[[[7.1389,47.808],[7.1201,47.8332],[7.0749,47.8149],[7.0836,47.8026],[7.1168,47.7903],[7.1389,47.808]]],[[[7.2107,47.9273],[7.1774,47.9098],[7.1886,47.9005],[7.2295,47.8964],[7.2408,47.911],[7.2713,47.9196],[7.2672,47.93],[7.2921,47.9419],[7.3285,47.9371],[7.3363,47.9841],[7.3454,47.9962],[7.2844,48.0237],[7.3086,48.0325],[7.3478,48.0244],[7.3545,48.046],[7.3155,48.0705],[7.3273,48.0886],[7.3269,48.1236],[7.2694,48.1349],[7.223,48.132],[7.219,48.0984],[7.1965,48.0812],[7.2449,48.0781],[7.2249,48.0546],[7.2356,48.0369],[7.196,48.0233],[7.1762,47.9962],[7.1478,47.9764],[7.1584,47.9651],[7.194,47.9535],[7.2107,47.9273]],[[7.2006,47.9887],[7.2032,48.0063],[7.2325,48.0016],[7.2324,47.988],[7.2006,47.9887]]],[[[7.3543,48.1477],[7.358,48.1657],[7.3885,48.2058],[7.4291,48.2024],[7.4355,48.2177],[7.3539,48.2486],[7.3286,48.2454],[7.3133,48.2649],[7.2671,48.2576],[7.2567,48.2336],[7.2368,48.2303],[7.2208,48.2137],[7.2359,48.1818],[7.2639,48.1765],[7.2747,48.1575],[7.3138,48.1388],[7.3376,48.1345],[7.3543,48.1477]]],[[[7.3317,48.2699],[7.3268,48.256],[7.3775,48.2432],[7.423,48.2461],[7.4222,48.259],[7.3918,48.2601],[7.3689,48.2787],[7.3317,48.2699]]],[[[7.472,48.3025],[7.4871,48.3217],[7.4828,48.334],[7.4398,48.3387],[7.4144,48.3648],[7.3888,48.3577],[7.3686,48.3169],[7.4086,48.3139],[7.472,48.3025]]],[[[7.4534,48.3748],[7.4603,48.4126],[7.3765,48.4279],[7.3476,48.4289],[7.3417,48.4109],[7.3533,48.3706],[7.4534,48.3748]]],[[[7.5154,48.5312],[7.5188,48.5884],[7.5378,48.5951],[7.5293,48.6296],[7.4676,48.6364],[7.4883,48.5969],[7.4536,48.5876],[7.4495,48.5706],[7.4845,48.5758],[7.4745,48.5565],[7.4822,48.5294],[7.5154,48.5312]]],[[[5.858,48.5901],[5.8748,48.6075],[5.8552,48.6442],[5.8662,48.6646],[5.8163,48.6509],[5.7871,48.6332],[5.8036,48.6252],[5.7853,48.6038],[5.8043,48.5933],[5.8082,48.5682],[5.8315,48.5553],[5.869,48.5672],[5.858,48.5901]]],[[[5.8756,48.715],[5.8647,48.739],[5.8422,48.7292],[5.793,48.7293],[5.8165,48.6979],[5.8541,48.6867],[5.8756,48.715]]],[[[6.5386,48.7514],[6.5521,48.7717],[6.5543,48.7985],[6.534,48.8045],[6.4911,48.7651],[6.509,48.7545],[6.5386,48.7514]]],[[[6.1278,49.1233],[6.1368,49.1368],[6.0899,49.136],[6.091,49.1187],[6.1204,49.1051],[6.1278,49.1233]]],[[[6.0648,48.9808],[6.0815,48.9631],[6.1267,48.9764],[6.1082,49.0092],[6.1201,49.0344],[6.0927,49.044],[6.0891,49.0193],[6.0648,48.9808]]],[[[6.0054,49.0346],[6.0152,49.0063],[6.0393,48.9975],[6.0548,49.0218],[6.0677,49.0605],[6.1104,49.0929],[6.0594,49.1169],[6.0308,49.1399],[6.0225,49.1248],[6.0483,49.1093],[6.0053,49.0846],[6.0267,49.0497],[6.0054,49.0346]]],[[[6.0988,49.1961],[6.1295,49.2014],[6.1465,49.2248],[6.144,49.2433],[6.1184,49.2393],[6.1167,49.2205],[6.0727,49.214],[6.0988,49.1961]]],[[[6.3689,49.4599],[6.3414,49.4687],[6.313,49.464],[6.301,49.4432],[6.3689,49.4599]]]]},"properties":{"nom":"ALSACE ET EST"}},
{"type":"Feature","geometry":{"type":"MultiPolygon","coordinates":[[[[4.4757,45.818],[4.4948,45.8043],[4.525,45.7588],[4.5424,45.7468],[4.5212,45.7288],[4.5521,45.7166],[4.602,45.7273],[4.6172,45.6957],[4.5767,45.6939],[4.5995,45.6709],[4.661,45.6719],[4.7031,45.7004],[4.7275,45.6911],[4.7659,45.6917],[4.7804,45.7228],[4.7402,45.7276],[4.7075,45.7426],[4.7117,45.774],[4.7315,45.7876],[4.755,45.7907],[4.7835,45.8078],[4.8102,45.8037],[4.8106,45.8215],[4.7933,45.8428],[4.8128,45.855],[4.82,45.8817],[4.8041,45.8985],[4.7686,45.8986],[4.7549,45.8806],[4.7292,45.8891],[4.7341,45.9114],[4.7241,45.9342],[4.7291,45.9495],[4.7503,45.9646],[4.7362,45.9789],[4.7115,45.9785],[4.706,46.0007],[4.7487,46.0028],[4.7389,46.0464],[4.7594,46.0616],[4.7469,46.0858],[4.7674,46.107],[4.7427,46.1408],[4.75,46.1676],[4.793,46.2016],[4.8112,46.2545],[4.7974,46.2724],[4.8265,46.2764],[4.8315,46.2962],[4.8517,46.3263],[4.8273,46.3305],[4.8182,46.3453],[4.8512,46.3523],[4.8893,46.4056],[4.8925,46.4426],[4.9122,46.4592],[4.9144,46.4853],[4.9384,46.523],[4.9859,46.5292],[4.9742,46.5528],[4.9468,46.5715],[4.9362,46.5956],[4.946,46.6206],[4.9198,46.6622],[4.88,46.6624],[4.8657,46.6531],[4.8217,46.6719],[4.8106,46.6472],[4.7773,46.6148],[4.7726,46.5982],[4.724,46.6158],[4.7221,46.6468],[4.7357,46.6657],[4.7708,46.6844],[4.7388,46.6913],[4.7422,46.7523],[4.7784,46.7425],[4.8089,46.7573],[4.7811,46.7713],[4.8001,46.7984],[4.7929,46.8104],[4.7952,46.8449],[4.8263,46.8581],[4.8158,46.907],[4.7734,46.9046],[4.7695,46.9287],[4.7783,46.9514],[4.8065,46.9794],[4.8285,46.9678],[4.8562,46.9664],[4.8912,46.9955],[4.8966,47.0102],[4.8592,47.0219],[4.8831,47.0409],[4.959,47.0464],[4.9759,47.0748],[4.9567,47.1139],[4.9794,47.1368],[5.0148,47.1223],[5.0299,47.1252],[5.0103,47.1559],[5.0227,47.1911],[4.9968,47.2023],[5.0286,47.2254],[5.0268,47.2416],[4.9993,47.2611],[5.0314,47.2845],[5.031,47.2978],[5.098,47.3034],[5.0731,47.3207],[5.0689,47.3534],[5.0519,47.3642],[5.0248,47.3348],[4.9832,47.3651],[4.9559,47.3713],[4.9394,47.3851],[4.9224,47.3459],[4.935,47.326],[4.9124,47.309],[4.9125,47.2943],[4.9353,47.2865],[4.932,47.2677],[4.9088,47.2677],[4.932,47.2089],[4.9212,47.1899],[4.8984,47.1941],[4.8677,47.1827],[4.816,47.1905],[4.7929,47.1432],[4.7943,47.1176],[4.7736,47.1125],[4.7551,47.0904],[4.7542,47.0697],[4.709,47.0812],[4.7144,47.0488],[4.6704,47.0345],[4.655,46.9986],[4.6266,46.9808],[4.5928,46.9679],[4.5858,46.9432],[4.608,46.9351],[4.5866,46.902],[4.5347,46.9059],[4.5208,46.89],[4.52,46.8671],[4.4704,46.8695],[4.4834,46.8301],[4.5159,46.8253],[4.5453,46.8379],[4.5926,46.8331],[4.624,46.8349],[4.6585,46.7947],[4.6623,46.7651],[4.6488,46.7435],[4.6125,46.7186],[4.6161,46.6991],[4.602,46.6783],[4.5795,46.6669],[4.5382,46.667],[4.5347,46.6588],[4.5785,46.637],[4.57,46.6051],[4.6108,46.5988],[4.5797,46.5688],[4.5551,46.5658],[4.5485,46.5468],[4.5924,46.5448],[4.568,46.4872],[4.5771,46.472],[4.5448,46.4617],[4.5446,46.4441],[4.5816,46.403],[4.6097,46.4081],[4.6305,46.3938],[4.6595,46.4129],[4.6202,46.4467],[4.68,46.4553],[4.6935,46.4463],[4.7363,46.4594],[4.6992,46.4139],[4.6533,46.3991],[4.663,46.3747],[4.6313,46.3088],[4.664,46.2952],[4.6832,46.3028],[4.7088,46.2785],[4.6228,46.2464],[4.6083,46.2112],[4.6267,46.1942],[4.6138,46.1814],[4.5857,46.1821],[4.5628,46.2077],[4.4818,46.1979],[4.5091,46.1754],[4.4988,46.144],[4.5302,46.1211],[4.5519,46.0865],[4.5355,46.044],[4.4746,46.0216],[4.4273,46.0178],[4.4188,46.0007],[4.4461,45.9801],[4.4688,45.9772],[4.4781,45.9468],[4.4543,45.9426],[4.4241,45.9254],[4.4519,45.9077],[4.4943,45.9136],[4.5327,45.9025],[4.5385,45.8771],[4.5179,45.8774],[4.4981,45.8637],[4.4645,45.8864],[4.4525,45.8698],[4.4186,45.8627],[4.4409,45.8341],[4.4757,45.818]],[[4.4757,45.818],[4.4878,45.8479],[4.4981,45.8505],[4.5397,45.8342],[4.5073,45.8178],[4.4757,45.818]],[[4.6679,46.5475],[4.6897,46.5539],[4.7177,46.5412],[4.718,46.5226],[4.6864,46.5247],[4.6679,46.5475]],[[4.6254,46.4689],[4.6206,46.5056],[4.6488,46.5071],[4.6813,46.5176],[4.6816,46.4826],[4.6553,46.4852],[4.6254,46.4689]]],[[[6.0058,45.4467],[6.0203,45.4713],[6.0603,45.4983],[6.1085,45.5209],[6.1182,45.5348],[6.1763,45.5557],[6.1845,45.5677],[6.2249,45.5853],[6.2201,45.6116],[6.1864,45.5953],[6.1595,45.6059],[6.1412,45.5858],[6.1063,45.5832],[6.0828,45.5387],[6.0687,45.5242],[6.0406,45.5149],[5.9927,45.5649],[5.9903,45.5799],[5.964,45.5924],[5.9342,45.595],[5.9503,45.5709],[5.9697,45.5749],[5.967,45.5466],[5.931,45.5347],[5.9268,45.5153],[5.8942,45.4966],[5.9254,45.4641],[5.9145,45.4362],[5.9597,45.4346],[5.9807,45.4559],[6.0058,45.4467]]],[[[4.7255,45.5737],[4.7582,45.5757],[4.7666,45.5571],[4.8088,45.5728],[4.7769,45.5875],[4.801,45.6081],[4.8129,45.6435],[4.8279,45.6539],[4.8381,45.6918],[4.8204,45.6956],[4.7911,45.6725],[4.7481,45.6585],[4.7416,45.6724],[4.7164,45.678],[4.685,45.659],[4.6536,45.6537],[4.6096,45.6391],[4.6214,45.6223],[4.6661,45.5981],[4.6542,45.5784],[4.6951,45.5553],[4.7255,45.5737]]],[[[5.8173,45.644],[5.8177,45.6175],[5.8525,45.6168],[5.8597,45.6405],[5.8822,45.6392],[5.8728,45.6684],[5.8258,45.6674],[5.8173,45.644]]],[[[5.8569,45.7621],[5.8694,45.7349],[5.8711,45.7079],[5.8999,45.7165],[5.9116,45.7366],[5.8799,45.7667],[5.8569,45.7621]]],[[[3.9556,45.9169],[3.9914,45.9183],[4.0307,45.912],[4.0339,45.9328],[4.0214,45.9623],[4.0467,45.9853],[4.0491,46.0225],[3.992,46.0017],[3.9692,46.0213],[3.9667,46.0411],[3.9334,46.0959],[3.9363,46.1171],[3.9158,46.121],[3.9248,46.1497],[3.9035,46.1553],[3.895,46.1773],[3.9093,46.1882],[3.9095,46.2079],[3.8778,46.2046],[3.8242,46.1908],[3.8087,46.174],[3.8305,46.1563],[3.8512,46.1578],[3.8688,46.1423],[3.8474,46.1087],[3.8507,46.0903],[3.8687,46.0617],[3.8537,46.0556],[3.8804,46.0276],[3.9006,46.0258],[3.9092,46.0038],[3.9329,45.9716],[3.9267,45.949],[3.9556,45.9169]]],[[[5.466,45.9502],[5.4637,45.9352],[5.4868,45.9151],[5.4986,45.9307],[5.4889,45.9482],[5.466,45.9502]]],[[[5.4447,46.0172],[5.4635,46.0095],[5.4811,46.0182],[5.4878,46.0525],[5.506,46.071],[5.4784,46.0802],[5.4755,46.097],[5.4357,46.1187],[5.4127,46.124],[5.399,46.1652],[5.3652,46.1725],[5.3471,46.1512],[5.2904,46.1548],[5.2826,46.1298],[5.2946,46.1134],[5.2897,46.0818],[5.3136,46.0744],[5.3508,46.0894],[5.3721,46.1171],[5.4053,46.1183],[5.376,46.0591],[5.354,46.046],[5.3541,46.0239],[5.4411,45.9978],[5.4447,46.0172]]],[[[6.4552,46.0543],[6.4607,46.0727],[6.5136,46.0726],[6.5287,46.1012],[6.5046,46.1206],[6.4411,46.0956],[6.4145,46.1012],[6.3803,46.0565],[6.394,46.0441],[6.4166,46.0426],[6.4552,46.0543]]],[[[4.0797,45.5187],[4.1052,45.5344],[4.1022,45.5689],[4.1102,45.5974],[4.0674,45.611],[4.0868,45.6571],[4.0466,45.6577],[4.0395,45.6753],[4.0652,45.7021],[4.0324,45.7182],[4.0721,45.7377],[4.0675,45.7747],[4.0742,45.8137],[4.0548,45.8114],[4.0398,45.8282],[4.0455,45.8489],[4.0261,45.8615],[4.0036,45.8385],[4.0037,45.8058],[3.9394,45.7691],[3.9696,45.7521],[3.9797,45.7308],[3.9617,45.6956],[3.9909,45.6811],[4.0054,45.6643],[3.989,45.6526],[4.0333,45.6241],[4.043,45.6054],[4.0255,45.5864],[4.0295,45.5654],[4.0774,45.532],[4.0797,45.5187]]],[[[5.6227,45.6661],[5.6338,45.638],[5.6849,45.6657],[5.7095,45.6883],[5.747,45.6772],[5.8054,45.6839],[5.8267,45.6686],[5.8471,45.6929],[5.8443,45.7131],[5.7981,45.7624],[5.7969,45.7895],[5.8182,45.806],[5.8638,45.7814],[5.866,45.839],[5.8788,45.8614],[5.8681,45.8889],[5.8624,45.9324],[5.8731,45.9455],[5.8692,45.9642],[5.881,45.9783],[5.914,45.9832],[5.9283,46.0124],[5.9652,46.005],[5.9734,46.0361],[5.9603,46.0548],[5.9435,46.0544],[5.8914,46.0882],[5.8692,46.0862],[5.8678,46.0661],[5.8844,46.0355],[5.8481,46.0353],[5.8286,46.0555],[5.8068,46.0442],[5.8084,46.0179],[5.7245,46.0213],[5.7448,45.9927],[5.7483,45.9613],[5.7689,45.9304],[5.7578,45.883],[5.7172,45.8711],[5.701,45.8829],[5.7069,45.9018],[5.6697,45.9005],[5.6798,45.9222],[5.678,45.9841],[5.6395,45.9843],[5.635,45.9445],[5.615,45.9142],[5.6293,45.9058],[5.6233,45.8668],[5.6093,45.8484],[5.5664,45.8339],[5.59,45.8045],[5.5906,45.76],[5.574,45.7539],[5.541,45.7591],[5.5179,45.7799],[5.5209,45.7894],[5.4982,45.8162],[5.5165,45.8404],[5.4819,45.8673],[5.4272,45.8611],[5.4161,45.8448],[5.4504,45.829],[5.4638,45.8116],[5.4382,45.7955],[5.4848,45.7525],[5.5178,45.7313],[5.5244,45.718],[5.5538,45.7089],[5.5455,45.6871],[5.5542,45.6786],[5.6058,45.6633],[5.6575,45.6988],[5.6564,45.6731],[5.6227,45.6661]]],[[[5.3997,45.9032],[5.4284,45.9226],[5.4088,45.9421],[5.4135,45.9789],[5.3724,45.9739],[5.3375,45.9839],[5.3274,45.9567],[5.3593,45.9475],[5.3219,45.9261],[5.3225,45.9084],[5.3037,45.9011],[5.2963,45.8648],[5.3287,45.8633],[5.3526,45.8833],[5.3782,45.8694],[5.3978,45.8767],[5.3997,45.9032]]],[[[5.2995,46.1813],[5.3107,46.1686],[5.3448,46.1713],[5.3385,46.1948],[5.2945,46.1939],[5.2995,46.1813]]],[[[6.3847,46.2988],[6.4107,46.3071],[6.4122,46.3402],[6.3626,46.348],[6.3544,46.3375],[6.3227,46.333],[6.3091,46.3411],[6.2734,46.3018],[6.2753,46.2871],[6.3147,46.2635],[6.3847,46.2988]]],[[[6.5079,46.383],[6.5773,46.3801],[6.568,46.3983],[6.5449,46.3947],[6.5132,46.4049],[6.4827,46.3917],[6.4767,46.3749],[6.4431,46.364],[6.4508,46.3456],[6.4995,46.36],[6.5079,46.383]]],[[[5.3776,46.4178],[5.4097,46.4447],[5.3981,46.4666],[5.3727,46.4601],[5.3233,46.4625],[5.3106,46.4469],[5.3072,46.422],[5.3311,46.399],[5.354,46.3928],[5.3776,46.4178]]],[[[5.42,46.4805],[5.4383,46.5008],[5.4318,46.5199],[5.4552,46.5474],[5.4555,46.5602],[5.4803,46.5685],[5.5092,46.5983],[5.5255,46.6399],[5.5825,46.6165],[5.6221,46.6141],[5.6235,46.6759],[5.6718,46.673],[5.7037,46.6858],[5.7629,46.6909],[5.7751,46.7172],[5.8012,46.7399],[5.7815,46.7465],[5.7451,46.7137],[5.7122,46.7162],[5.6784,46.7272],[5.6936,46.759],[5.6933,46.7737],[5.6701,46.7869],[5.6805,46.8026],[5.7348,46.8569],[5.7472,46.8581],[5.7517,46.8099],[5.7177,46.7924],[5.7252,46.7811],[5.7684,46.766],[5.7885,46.8001],[5.7884,46.8271],[5.8108,46.8441],[5.7993,46.8602],[5.8157,46.8846],[5.8363,46.8912],[5.8386,46.9169],[5.8674,46.9338],[5.8862,46.9284],[5.8917,46.9086],[5.9219,46.9189],[5.9217,46.9365],[5.896,46.9475],[5.9126,46.9706],[5.9439,46.9801],[5.967,47.0282],[5.9714,47.0528],[6.0117,47.0703],[6.0339,47.0903],[6.0506,47.126],[6.0724,47.1375],[6.0279,47.1688],[5.9998,47.1547],[5.9525,47.1594],[5.935,47.1409],[5.9041,47.1371],[5.8922,47.1212],[5.857,47.1004],[5.8056,47.1157],[5.7857,47.0951],[5.7687,47.09],[5.7835,47.0549],[5.7485,47.0422],[5.7441,47.0223],[5.7691,47.0093],[5.7823,46.9727],[5.7464,46.9577],[5.7324,46.9798],[5.7042,46.9704],[5.6803,46.975],[5.6499,46.9601],[5.6161,46.9195],[5.62,46.9018],[5.609,46.8866],[5.564,46.8521],[5.5407,46.8441],[5.5383,46.8197],[5.5023,46.7592],[5.4847,46.7532],[5.4735,46.7233],[5.483,46.6894],[5.5102,46.672],[5.4503,46.6475],[5.4375,46.6295],[5.4141,46.6147],[5.4057,46.5816],[5.3622,46.5774],[5.3584,46.5197],[5.3867,46.5145],[5.4073,46.5003],[5.42,46.4805]],[[5.8553,46.9681],[5.8686,46.9912],[5.9156,46.9967],[5.9036,46.9647],[5.8682,46.9579],[5.8553,46.9681]]],[[[3.7335,47.4329],[3.7739,47.4482],[3.7931,47.4448],[3.8185,47.4603],[3.8167,47.4706],[3.7863,47.4991],[3.7504,47.5096],[3.7232,47.501],[3.6962,47.4741],[3.6827,47.4519],[3.7166,47.4248],[3.7335,47.4329]]],[[[4.8165,47.3075],[4.8392,47.3254],[4.8273,47.3428],[4.8012,47.3318],[4.7687,47.3396],[4.7768,47.3142],[4.8089,47.298],[4.8165,47.3075]]],[[[3.591,47.6481],[3.6208,47.678],[3.6116,47.7017],[3.6413,47.6986],[3.6871,47.6794],[3.6866,47.656],[3.7118,47.6317],[3.7388,47.6477],[3.7737,47.6575],[3.7845,47.6409],[3.8353,47.6373],[3.8511,47.6442],[3.8355,47.6756],[3.8363,47.69],[3.7995,47.7102],[3.8427,47.7401],[3.8623,47.731],[3.937,47.772],[3.9249,47.7775],[3.9439,47.8073],[3.9841,47.8006],[4.0425,47.8337],[4.0374,47.8618],[4.0611,47.8904],[4.0362,47.9055],[4.0405,47.924],[3.9626,47.936],[3.9183,47.9282],[3.9327,47.9128],[3.9162,47.8896],[3.8842,47.9227],[3.8393,47.9055],[3.8391,47.877],[3.7963,47.8932],[3.7745,47.8959],[3.7645,47.9269],[3.7776,47.9525],[3.7424,47.9625],[3.721,47.9578],[3.7376,47.9351],[3.729,47.9226],[3.7443,47.9038],[3.7038,47.8777],[3.7078,47.8462],[3.6443,47.8365],[3.6265,47.8524],[3.5604,47.8159],[3.5373,47.7949],[3.5261,47.7642],[3.5492,47.761],[3.562,47.7363],[3.5535,47.6893],[3.5246,47.6979],[3.5008,47.6896],[3.5087,47.6616],[3.5068,47.6324],[3.5649,47.6335],[3.591,47.6481]],[[3.9029,47.8878],[3.9182,47.8798],[3.9123,47.8537],[3.8522,47.8669],[3.8696,47.8823],[3.9029,47.8878]]],[[[4.3058,47.9543],[4.339,47.9443],[4.3647,47.9208],[4.3532,47.9017],[4.3555,47.8659],[4.4119,47.8521],[4.4365,47.8601],[4.4461,47.8447],[4.4755,47.8519],[4.4676,47.8686],[4.5101,47.8841],[4.5232,47.9004],[4.5539,47.8767],[4.5849,47.8905],[4.6246,47.8828],[4.6376,47.8713],[4.6331,47.8523],[4.6588,47.8537],[4.6851,47.881],[4.7202,47.8753],[4.7315,47.8877],[4.7135,47.9234],[4.7042,47.9566],[4.6371,47.9783],[4.6206,47.9641],[4.5981,47.9754],[4.6018,48.0156],[4.622,48.0244],[4.5802,48.029],[4.5497,48.0052],[4.5525,47.9679],[4.4924,47.968],[4.4471,47.9564],[4.4172,47.9687],[4.3496,47.9566],[4.3058,47.9543]]],[[[4.2564,47.8326],[4.2629,47.8742],[4.2894,47.9112],[4.2428,47.9183],[4.2143,47.9124],[4.1957,47.8886],[4.1577,47.874],[4.1544,47.8516],[4.1846,47.8599],[4.1921,47.8316],[4.2469,47.8404],[4.2564,47.8326]]],[[[3.4352,47.9687],[3.4256,47.9923],[3.4315,48.01],[3.4516,48.0241],[3.459,48.0492],[3.4058,48.0523],[3.3703,48.0185],[3.3876,48.012],[3.3752,47.9871],[3.3576,47.9735],[3.3922,47.9585],[3.4352,47.9687]]]]},"properties":{"nom":"BOURGOGNE BEAUJOLAIS SAVOIE JURA"}},
{"type":"Feature","geometry":{"type":"MultiPolygon","coordinates":[[[[4.622,48.0244],[4.6463,48.0258],[4.6708,48.0153],[4.6988,48.0239],[4.7232,48.0458],[4.6888,48.0731],[4.7255,48.1072],[4.7411,48.1401],[4.7668,48.1518],[4.7831,48.1819],[4.7572,48.1819],[4.7457,48.2054],[4.7577,48.2127],[4.7945,48.2123],[4.8158,48.1955],[4.8484,48.1895],[4.8632,48.202],[4.8421,48.2142],[4.8513,48.2266],[4.8458,48.2471],[4.8937,48.2595],[4.8882,48.2949],[4.836,48.3022],[4.8151,48.2885],[4.7835,48.2815],[4.7632,48.2931],[4.7312,48.2928],[4.7164,48.2798],[4.6464,48.2921],[4.6317,48.2793],[4.5633,48.2645],[4.5839,48.2426],[4.5613,48.1908],[4.5424,48.1872],[4.5339,48.1618],[4.4495,48.1572],[4.4324,48.1462],[4.4068,48.1483],[4.3476,48.1168],[4.3304,48.1],[4.336,48.0791],[4.3169,48.0582],[4.2511,48.0219],[4.2424,47.9957],[4.2261,47.9858],[4.2221,47.9497],[4.2451,47.93],[4.2928,47.9259],[4.3058,47.9543],[4.3496,47.9566],[4.4172,47.9687],[4.4471,47.9564],[4.4924,47.968],[4.5525,47.9679],[4.5497,48.0052],[4.5802,48.029],[4.622,48.0244]]],[[[3.6616,48.2936],[3.6789,48.3469],[3.6648,48.3731],[3.6124,48.3526],[3.6239,48.2889],[3.6616,48.2936]]],[[[4.4674,48.3865],[4.4838,48.3736],[4.5118,48.3842],[4.5429,48.3832],[4.5848,48.3898],[4.5745,48.4251],[4.5505,48.4191],[4.4944,48.4199],[4.4616,48.4285],[4.4349,48.4263],[4.4674,48.3865]]],[[[3.8254,48.5152],[3.8656,48.5379],[3.8585,48.5604],[3.8707,48.5804],[3.8992,48.5749],[3.9085,48.6017],[3.9492,48.6032],[3.9595,48.6237],[3.9769,48.6289],[3.9869,48.6554],[4.0012,48.664],[4.0299,48.6596],[4.0614,48.6699],[4.0785,48.7015],[4.1312,48.6863],[4.1578,48.7044],[4.1826,48.7485],[4.2019,48.7659],[4.2696,48.7917],[4.3096,48.8031],[4.3302,48.7598],[4.3473,48.7444],[4.3704,48.7592],[4.4437,48.7606],[4.4469,48.7427],[4.3988,48.7246],[4.4029,48.7122],[4.4465,48.7036],[4.4309,48.6854],[4.4547,48.6581],[4.4771,48.655],[4.4986,48.6708],[4.5435,48.6864],[4.5841,48.6854],[4.6066,48.6722],[4.6617,48.7008],[4.6424,48.7146],[4.6474,48.7423],[4.7089,48.7663],[4.7015,48.7739],[4.7347,48.7918],[4.7641,48.7956],[4.7849,48.8204],[4.8089,48.8256],[4.8243,48.8425],[4.8033,48.8556],[4.7649,48.8682],[4.6939,48.9052],[4.7134,48.9208],[4.6997,48.9569],[4.6815,48.9698],[4.6679,49.007],[4.6381,49.0126],[4.6064,49.0084],[4.5905,49.0277],[4.5666,49.0187],[4.5438,49.0908],[4.544,49.1021],[4.5684,49.1347],[4.598,49.1595],[4.6282,49.1684],[4.6532,49.1923],[4.6233,49.2057],[4.5967,49.2027],[4.5867,49.2249],[4.5448,49.22],[4.5217,49.2078],[4.4835,49.2061],[4.4825,49.2525],[4.4925,49.2807],[4.4472,49.2725],[4.3935,49.2972],[4.3737,49.3212],[4.3082,49.3269],[4.2907,49.3474],[4.2554,49.3662],[4.243,49.3804],[4.175,49.4025],[4.0769,49.4015],[4.04,49.3974],[4.0358,49.3599],[4.0178,49.3604],[3.9952,49.3779],[3.9615,49.3773],[3.932,49.4029],[3.9107,49.3956],[3.8704,49.4067],[3.8375,49.3965],[3.8564,49.3812],[3.8528,49.345],[3.8022,49.3589],[3.7408,49.3476],[3.7244,49.3684],[3.6835,49.377],[3.674,49.3902],[3.6159,49.3849],[3.626,49.4045],[3.6187,49.4172],[3.5898,49.4301],[3.5721,49.416],[3.5488,49.412],[3.542,49.4312],[3.5055,49.4164],[3.4843,49.4258],[3.4839,49.4552],[3.4655,49.4515],[3.4622,49.4244],[3.4349,49.4175],[3.4162,49.4015],[3.3973,49.4104],[3.3639,49.3899],[3.4073,49.3623],[3.3921,49.336],[3.4292,49.3211],[3.4328,49.3454],[3.466,49.3461],[3.4708,49.3195],[3.4938,49.3168],[3.5047,49.3325],[3.5379,49.3278],[3.5562,49.3372],[3.583,49.3198],[3.6318,49.3232],[3.6476,49.316],[3.6418,49.2966],[3.6651,49.2694],[3.6727,49.2333],[3.6565,49.2113],[3.6972,49.2055],[3.6978,49.1892],[3.7396,49.1569],[3.7029,49.1415],[3.6838,49.1545],[3.6244,49.1514],[3.603,49.1215],[3.561,49.1101],[3.5296,49.0933],[3.4796,49.1066],[3.4502,49.0765],[3.4226,49.0822],[3.3791,49.0808],[3.3222,49.0605],[3.2943,49.0401],[3.306,49.027],[3.2548,49.0201],[3.2199,49.0391],[3.1934,49.0468],[3.1613,49.0153],[3.1742,48.9906],[3.1962,48.9748],[3.1838,48.9448],[3.2384,48.9288],[3.3044,48.9488],[3.3133,48.9212],[3.3303,48.9087],[3.3666,48.9227],[3.3701,48.9347],[3.3479,48.961],[3.3928,48.9633],[3.4117,48.9785],[3.4442,48.9707],[3.4762,48.9766],[3.4982,48.9303],[3.5288,48.9424],[3.5644,48.9451],[3.5725,48.9186],[3.5287,48.9122],[3.5083,48.8905],[3.5029,48.8714],[3.4851,48.8666],[3.4913,48.8346],[3.4852,48.8252],[3.4475,48.8116],[3.4163,48.818],[3.4402,48.7841],[3.4094,48.7837],[3.3959,48.7593],[3.4365,48.7532],[3.4422,48.7377],[3.4697,48.7379],[3.4639,48.7072],[3.4703,48.6861],[3.4511,48.68],[3.4407,48.6631],[3.476,48.6375],[3.5132,48.6435],[3.5569,48.619],[3.503,48.6046],[3.5231,48.5843],[3.5598,48.57],[3.5917,48.5873],[3.6047,48.5727],[3.5956,48.5336],[3.6219,48.5358],[3.6075,48.5743],[3.6213,48.5803],[3.6337,48.5419],[3.6616,48.5344],[3.688,48.54],[3.7322,48.5371],[3.7663,48.5276],[3.7934,48.5289],[3.8254,48.5152]]],[[[4.7992,48.5301],[4.7762,48.5659],[4.7692,48.5887],[4.7941,48.6207],[4.7727,48.6281],[4.7548,48.6199],[4.7189,48.6207],[4.6842,48.6295],[4.6764,48.6168],[4.7,48.5629],[4.7265,48.5397],[4.7992,48.5301]]],[[[4.6055,48.625],[4.6296,48.6469],[4.6186,48.661],[4.5908,48.6597],[4.5674,48.6449],[4.6055,48.625]]],[[[3.9859,48.3057],[3.9536,48.3167],[3.9217,48.2912],[3.9335,48.2764],[3.9884,48.2992],[3.9859,48.3057]]],[[[4.0498,48.2995],[4.0119,48.3086],[3.991,48.2887],[4.0345,48.2915],[4.0498,48.2995]]],[[[4.6175,48.2975],[4.6273,48.3147],[4.6116,48.3242],[4.5709,48.312],[4.5888,48.2867],[4.6175,48.2975]]]]},"properties":{"nom":"CHAMPAGNE"}},
{"type":"Feature","geometry":{"type":"MultiPolygon","coordinates":[[[[2.7242,42.4227],[2.7532,42.4264],[2.7739,42.412],[2.7966,42.4185],[2.8281,42.4402],[2.8622,42.4897],[2.8783,42.4964],[2.9117,42.4884],[2.9328,42.4744],[2.9471,42.4821],[2.9666,42.4665],[2.988,42.4738],[3.0131,42.4681],[3.0404,42.4742],[3.0473,42.4584],[3.085,42.4262],[3.1176,42.4364],[3.1736,42.436],[3.1535,42.4763],[3.1306,42.4817],[3.1374,42.5146],[3.0513,42.5403],[3.0436,42.5998],[3.0369,42.615],[3.035,42.6713],[3.0277,42.709],[3.0023,42.7096],[2.9451,42.7192],[2.9679,42.7348],[2.9794,42.7614],[2.9743,42.7777],[2.9929,42.7991],[3.0126,42.8523],[3.0438,42.8381],[3.0605,42.9171],[3.0409,42.9295],[3.0456,42.9674],[3.0658,43.022],[3.1021,43.0821],[3.123,43.1089],[3.1774,43.1657],[3.2309,43.2081],[3.2714,43.2338],[3.2775,43.2478],[3.3124,43.2545],[3.3449,43.2694],[3.3305,43.2923],[3.2988,43.2948],[3.2899,43.306],[3.255,43.3098],[3.2676,43.3308],[3.2932,43.3438],[3.317,43.3473],[3.3457,43.3323],[3.3783,43.333],[3.3901,43.3469],[3.3681,43.3655],[3.433,43.3855],[3.4562,43.3411],[3.499,43.3573],[3.5013,43.3701],[3.5286,43.3957],[3.5516,43.405],[3.5937,43.3894],[3.643,43.4149],[3.6156,43.4309],[3.5938,43.4586],[3.5974,43.4725],[3.6257,43.4867],[3.6448,43.4655],[3.6663,43.4578],[3.6986,43.4794],[3.6944,43.4874],[3.712,43.5174],[3.7519,43.5445],[3.766,43.573],[3.8142,43.5725],[3.8201,43.5925],[3.8368,43.5946],[3.8606,43.5667],[3.9008,43.5894],[3.9376,43.595],[3.9418,43.5812],[3.9687,43.5654],[3.9765,43.5442],[4.0375,43.5564],[4.0933,43.6062],[4.0591,43.5987],[4.0478,43.6233],[4.002,43.6481],[3.9769,43.6525],[3.9498,43.6438],[3.9228,43.6556],[3.8686,43.6477],[3.8444,43.6729],[3.8833,43.6874],[3.8886,43.6754],[3.9405,43.694],[3.9708,43.6676],[3.9932,43.6671],[4.0549,43.6854],[4.0758,43.6753],[4.0892,43.6577],[4.1094,43.6721],[4.1348,43.65],[4.1597,43.6623],[4.155,43.6798],[4.1636,43.7067],[4.1538,43.7149],[4.1249,43.7131],[4.122,43.7465],[4.1467,43.7919],[4.1634,43.7892],[4.202,43.7502],[4.2342,43.7579],[4.2414,43.773],[4.2759,43.7996],[4.2842,43.8167],[4.2513,43.819],[4.2059,43.8105],[4.1607,43.8326],[4.1825,43.8484],[4.1918,43.8735],[4.2088,43.887],[4.1999,43.8937],[4.1485,43.9048],[4.1613,43.9204],[4.1492,43.921],[4.1241,43.9461],[4.0643,43.9135],[4.0406,43.9058],[4.0079,43.8966],[3.957,43.9012],[3.9322,43.8946],[3.8977,43.8777],[3.8564,43.8766],[3.8351,43.8396],[3.8558,43.8185],[3.8339,43.794],[3.7842,43.7865],[3.7781,43.7661],[3.7583,43.7567],[3.7696,43.7308],[3.74,43.7215],[3.7192,43.7378],[3.6918,43.7155],[3.664,43.7196],[3.6767,43.7466],[3.6775,43.7821],[3.6643,43.8061],[3.6869,43.8278],[3.7167,43.8279],[3.7292,43.8473],[3.7616,43.8693],[3.7252,43.8794],[3.7017,43.9128],[3.6662,43.8951],[3.67,43.8805],[3.581,43.8461],[3.5638,43.8333],[3.5673,43.8131],[3.5477,43.8036],[3.5894,43.7749],[3.5784,43.749],[3.5596,43.7411],[3.5374,43.7148],[3.4873,43.7554],[3.4424,43.7775],[3.3858,43.7494],[3.363,43.7617],[3.376,43.8005],[3.37,43.8519],[3.3443,43.8428],[3.3303,43.8282],[3.2867,43.8297],[3.246,43.8136],[3.2418,43.796],[3.267,43.7696],[3.3054,43.7528],[3.2961,43.7374],[3.2526,43.7321],[3.2615,43.7108],[3.2483,43.6922],[3.2512,43.6634],[3.2703,43.6558],[3.2645,43.6329],[3.2909,43.5929],[3.2643,43.5711],[3.2358,43.5851],[3.2156,43.5768],[3.2059,43.5919],[3.1808,43.5969],[3.1457,43.5858],[3.1423,43.5745],[3.1092,43.5614],[3.0633,43.5544],[3.0466,43.5625],[3.014,43.5536],[2.9718,43.5555],[2.9416,43.5346],[2.9312,43.5151],[2.8853,43.5098],[2.8626,43.4983],[2.8803,43.4659],[2.8671,43.4355],[2.8543,43.4237],[2.8549,43.4058],[2.8088,43.4132],[2.7879,43.4323],[2.7602,43.4172],[2.7656,43.3936],[2.7299,43.3732],[2.675,43.3912],[2.6577,43.3834],[2.6317,43.3982],[2.6173,43.422],[2.6016,43.4319],[2.5714,43.4207],[2.5862,43.3992],[2.5595,43.3932],[2.5448,43.3498],[2.5214,43.3529],[2.5183,43.3704],[2.4986,43.3847],[2.456,43.3971],[2.4385,43.3758],[2.3811,43.3679],[2.3527,43.3581],[2.3045,43.3621],[2.3015,43.3421],[2.2665,43.349],[2.2512,43.318],[2.2278,43.3238],[2.2161,43.3399],[2.1883,43.3418],[2.1923,43.316],[2.1675,43.2909],[2.1739,43.2645],[2.139,43.2654],[2.1443,43.2465],[2.1124,43.229],[2.0886,43.2394],[2.0717,43.2312],[2.0486,43.201],[1.9883,43.2146],[1.9869,43.2418],[1.9708,43.2474],[1.9498,43.2359],[1.9466,43.2218],[1.972,43.2088],[1.9626,43.1945],[1.9992,43.1691],[1.9854,43.1213],[2.0338,43.1143],[2.0488,43.0929],[2.0817,43.0871],[2.0753,43.0574],[2.0643,43.0433],[2.1169,43.0363],[2.0891,43.0031],[2.1091,42.9862],[2.1331,43.0016],[2.1539,42.9905],[2.1503,42.9788],[2.0805,42.9734],[2.0829,42.9429],[2.1217,42.9496],[2.1344,42.9456],[2.1303,42.923],[2.1721,42.899],[2.1882,42.9058],[2.2443,42.9124],[2.2423,42.9326],[2.2645,42.9348],[2.2961,42.9136],[2.2982,42.9388],[2.3349,42.9342],[2.3509,42.9389],[2.3597,42.9826],[2.3155,42.9696],[2.2944,42.9727],[2.2822,42.9979],[2.3192,43.0225],[2.3189,43.0416],[2.3426,43.0436],[2.3864,43.0354],[2.3964,43.0544],[2.3673,43.068],[2.3777,43.0938],[2.4149,43.0843],[2.4499,43.0533],[2.4955,43.0335],[2.5085,43.0216],[2.5028,43.0025],[2.5582,42.9796],[2.549,42.9561],[2.5226,42.9347],[2.5423,42.9191],[2.5694,42.9337],[2.5935,42.913],[2.5309,42.901],[2.5328,42.865],[2.5158,42.8453],[2.5027,42.8514],[2.4525,42.837],[2.3822,42.8487],[2.3272,42.8374],[2.3334,42.8019],[2.4182,42.7949],[2.4234,42.7651],[2.4062,42.7493],[2.4058,42.727],[2.363,42.7053],[2.3766,42.6878],[2.4052,42.685],[2.4554,42.7194],[2.4889,42.6913],[2.4602,42.6723],[2.4866,42.6447],[2.4675,42.6316],[2.4759,42.6195],[2.4603,42.5702],[2.4749,42.5266],[2.4977,42.5296],[2.506,42.5512],[2.4952,42.5855],[2.5327,42.5812],[2.5358,42.6185],[2.5748,42.618],[2.578,42.627],[2.6252,42.6303],[2.6342,42.6063],[2.6542,42.5934],[2.6663,42.572],[2.687,42.556],[2.6831,42.5369],[2.649,42.5261],[2.6655,42.461],[2.6507,42.4259],[2.6709,42.4234],[2.673,42.4054],[2.6942,42.4073],[2.7242,42.4227]],[[3.0061,42.6449],[2.9774,42.6288],[2.9407,42.6292],[2.9361,42.6522],[2.9681,42.6422],[3.0061,42.6449]],[[2.3074,43.1758],[2.3844,43.1916],[2.4094,43.1722],[2.4112,43.1461],[2.4848,43.1338],[2.4959,43.1202],[2.4511,43.0998],[2.4235,43.1157],[2.3916,43.1046],[2.3584,43.1259],[2.3346,43.1091],[2.3158,43.1128],[2.314,43.1444],[2.3247,43.1612],[2.3074,43.1758]],[[2.9186,43.2083],[2.888,43.2208],[2.8484,43.1999],[2.8423,43.2059],[2.8618,43.236],[2.8822,43.2432],[2.9074,43.2408],[2.9068,43.2935],[2.9269,43.3058],[2.9909,43.3191],[2.9931,43.3253],[3.0465,43.3569],[3.0972,43.3538],[3.1286,43.3656],[3.1412,43.3785],[3.1258,43.4065],[3.1743,43.4468],[3.1508,43.4726],[3.1827,43.486],[3.2132,43.4606],[3.2405,43.471],[3.2681,43.4584],[3.2938,43.4754],[3.3276,43.452],[3.2918,43.4424],[3.2365,43.41],[3.2032,43.4261],[3.1714,43.406],[3.1831,43.3789],[3.178,43.3588],[3.1615,43.3484],[3.129,43.348],[3.157,43.3206],[3.1772,43.3114],[3.1964,43.281],[3.1932,43.2503],[3.1573,43.2422],[3.1413,43.2594],[3.1549,43.2957],[3.1166,43.3107],[3.1108,43.3011],[3.0544,43.2799],[3.0782,43.262],[3.0775,43.2381],[3.0676,43.2118],[3.0291,43.2377],[2.9969,43.2344],[2.9653,43.2133],[2.9186,43.2083]],[[2.5652,43.0495],[2.5849,43.048],[2.5868,43.0308],[2.5668,43.0224],[2.5535,43.0348],[2.5652,43.0495]],[[3.4776,43.5824],[3.5003,43.612],[3.4954,43.6213],[3.5409,43.6385],[3.5338,43.6069],[3.5482,43.5943],[3.5214,43.5736],[3.5224,43.5505],[3.5036,43.5337],[3.4774,43.5353],[3.483,43.5548],[3.4776,43.5824]],[[3.6177,43.6229],[3.6186,43.6476],[3.629,43.6787],[3.6654,43.6779],[3.6618,43.6597],[3.683,43.6327],[3.7104,43.6135],[3.716,43.5997],[3.6568,43.604],[3.6495,43.6255],[3.6177,43.6229]],[[3.3474,43.4105],[3.3398,43.4403],[3.3613,43.4549],[3.3832,43.4587],[3.4026,43.4448],[3.3897,43.4154],[3.3474,43.4105]],[[3.4159,43.5001],[3.4419,43.5028],[3.4604,43.5258],[3.4678,43.4822],[3.4306,43.4845],[3.4159,43.5001]],[[3.4631,43.4534],[3.4456,43.4751],[3.4665,43.4789],[3.4923,43.4594],[3.4631,43.4534]],[[3.901,43.7491],[3.9211,43.7462],[3.9399,43.7559],[3.9855,43.767],[3.9745,43.8015],[4.0267,43.7781],[4.0518,43.7782],[4.0674,43.765],[4.0499,43.7421],[4.0375,43.7483],[4.0031,43.7342],[3.9935,43.7488],[3.9683,43.738],[3.9392,43.7392],[3.901,43.7491]],[[3.8122,43.6671],[3.8385,43.6504],[3.7957,43.6378],[3.7436,43.6457],[3.7828,43.663],[3.8122,43.6671]],[[3.3257,43.6686],[3.3833,43.6775],[3.3874,43.6637],[3.3329,43.6556],[3.3257,43.6686]],[[3.2824,43.6168],[3.324,43.6409],[3.3349,43.6124],[3.311,43.6094],[3.2824,43.6168]]],[[[3.8304,43.4707],[3.8675,43.4962],[3.9074,43.5171],[3.8999,43.5402],[3.8438,43.5554],[3.8279,43.5545],[3.8104,43.5316],[3.8289,43.5221],[3.8604,43.4925],[3.8304,43.4707]]],[[[3.8518,43.9851],[3.8151,43.9811],[3.8003,43.9658],[3.7438,43.9666],[3.7167,43.9608],[3.7182,43.9462],[3.742,43.9382],[3.7504,43.9248],[3.7781,43.9271],[3.7997,43.8912],[3.8237,43.9176],[3.8688,43.9268],[3.9239,43.9008],[3.9231,43.9164],[3.9383,43.9397],[3.9247,43.9686],[3.865,43.9777],[3.8518,43.9851]]]]},"properties":{"nom":"LANGUEDOC-ROUSSILLON"}},
{"type":"Feature","geometry":{"type":"MultiPolygon","coordinates":[[[[9.2873,41.4839],[9.2772,41.5062],[9.3027,41.5457],[9.3433,41.5599],[9.3673,41.5976],[9.3435,41.5944],[9.3223,41.6049],[9.2946,41.5842],[9.2883,41.6092],[9.3151,41.6245],[9.3546,41.6168],[9.3476,41.6369],[9.3725,41.6432],[9.3873,41.6571],[9.3728,41.6796],[9.4008,41.6939],[9.4077,41.7667],[9.3956,41.7754],[9.3945,41.7971],[9.4061,41.8216],[9.3969,41.8735],[9.4153,41.9254],[9.4136,41.9546],[9.4256,41.9727],[9.4697,42.0157],[9.5307,42.0868],[9.5479,42.1026],[9.5553,42.1271],[9.559,42.1958],[9.5524,42.233],[9.5593,42.285],[9.5376,42.3447],[9.5325,42.3843],[9.5434,42.4273],[9.5414,42.4569],[9.53,42.4901],[9.5332,42.547],[9.5136,42.5863],[9.4428,42.6614],[9.3904,42.6759],[9.4054,42.703],[9.4501,42.7108],[9.4715,42.7696],[9.492,42.8038],[9.4812,42.836],[9.4847,42.853],[9.4752,42.8731],[9.4688,42.9366],[9.4515,42.9627],[9.4635,42.9853],[9.4221,43.0117],[9.3572,43.0064],[9.3412,42.9943],[9.3586,42.9437],[9.3598,42.9231],[9.3236,42.9002],[9.3343,42.864],[9.3104,42.8319],[9.3419,42.7982],[9.3394,42.7574],[9.3452,42.7366],[9.3224,42.7157],[9.323,42.6971],[9.2846,42.6762],[9.2769,42.6922],[9.2323,42.7207],[9.2221,42.7354],[9.1984,42.7245],[9.1668,42.7363],[9.1248,42.7317],[9.1004,42.7157],[9.1349,42.6934],[9.1728,42.6399],[9.2002,42.621],[9.2467,42.5986],[9.2991,42.616],[9.2622,42.6579],[9.283,42.6625],[9.2967,42.6352],[9.3088,42.6273],[9.3979,42.6205],[9.4214,42.6101],[9.4129,42.5839],[9.3752,42.5559],[9.3746,42.5361],[9.3913,42.522],[9.3705,42.4846],[9.3917,42.4494],[9.4083,42.4634],[9.418,42.492],[9.4446,42.4866],[9.4362,42.467],[9.4611,42.4497],[9.4619,42.4303],[9.4811,42.4216],[9.4859,42.402],[9.4785,42.3372],[9.4606,42.3322],[9.4555,42.3074],[9.4255,42.3011],[9.4314,42.2819],[9.4044,42.2628],[9.3783,42.2732],[9.3584,42.2726],[9.3515,42.2502],[9.3124,42.2595],[9.2834,42.2766],[9.2558,42.2706],[9.2484,42.2497],[9.2292,42.2406],[9.2607,42.1976],[9.2296,42.1758],[9.2028,42.1495],[9.181,42.1418],[9.1499,42.1025],[9.1376,42.0947],[9.1309,42.0546],[9.161,42.0257],[9.189,42.0315],[9.2212,42.0274],[9.2277,42.0447],[9.2589,42.0457],[9.3023,42.0318],[9.3149,41.9933],[9.2676,41.9694],[9.2428,41.9445],[9.2945,41.95],[9.306,41.9176],[9.2707,41.8935],[9.238,41.8788],[9.2274,41.8555],[9.2371,41.8464],[9.2678,41.8411],[9.3015,41.8448],[9.3091,41.8322],[9.2413,41.7846],[9.2246,41.7956],[9.1934,41.7748],[9.1657,41.7641],[9.1372,41.7383],[9.145,41.7097],[9.189,41.6838],[9.192,41.6727],[9.1638,41.6556],[9.1698,41.6163],[9.1513,41.6141],[9.084,41.5841],[9.0599,41.5944],[9.0459,41.6095],[9.0255,41.5982],[8.9949,41.6025],[8.9925,41.6203],[9.0525,41.6448],[9.0628,41.6383],[9.1017,41.659],[9.0989,41.7018],[9.0529,41.7052],[9.0254,41.7186],[9.0187,41.7048],[8.9841,41.7027],[8.9896,41.7245],[8.964,41.7312],[8.9559,41.7576],[8.9356,41.775],[8.9101,41.8376],[8.9172,41.8533],[8.9397,41.8446],[8.9751,41.8605],[8.9548,41.8925],[8.9483,41.9405],[8.9521,41.9515],[8.9435,41.983],[8.9757,42.0058],[8.9536,42.0512],[8.9624,42.071],[8.9454,42.0898],[8.9209,42.0764],[8.8692,42.0615],[8.8551,42.08],[8.8267,42.0832],[8.8096,42.1139],[8.8231,42.1419],[8.8115,42.1548],[8.821,42.1699],[8.7973,42.1866],[8.7718,42.1618],[8.721,42.1744],[8.7027,42.1855],[8.6823,42.1717],[8.6368,42.167],[8.6207,42.1847],[8.6727,42.2101],[8.699,42.2309],[8.689,42.2633],[8.6101,42.2522],[8.561,42.2369],[8.5739,42.228],[8.5786,42.1873],[8.5924,42.1655],[8.5861,42.151],[8.5962,42.1298],[8.6472,42.1211],[8.659,42.107],[8.7016,42.1112],[8.7063,42.089],[8.7385,42.0651],[8.7389,42.0403],[8.6914,42.0283],[8.6568,42.009],[8.6658,41.9788],[8.6486,41.9685],[8.6145,41.9712],[8.5922,41.9641],[8.6072,41.9422],[8.6236,41.9345],[8.6107,41.9131],[8.616,41.8999],[8.6473,41.9098],[8.6767,41.9056],[8.7178,41.9079],[8.779,41.9255],[8.8021,41.899],[8.7796,41.8839],[8.7908,41.865],[8.7728,41.8461],[8.7692,41.8101],[8.7484,41.8107],[8.7188,41.7933],[8.7329,41.7803],[8.7097,41.7581],[8.686,41.7479],[8.7217,41.7242],[8.7727,41.7416],[8.7846,41.7321],[8.7719,41.7123],[8.794,41.7073],[8.8101,41.7142],[8.8505,41.6961],[8.8785,41.696],[8.9078,41.677],[8.8814,41.6705],[8.8766,41.6507],[8.8515,41.6465],[8.8205,41.6297],[8.7959,41.6323],[8.7914,41.6082],[8.7771,41.5895],[8.8007,41.5719],[8.7888,41.5587],[8.8167,41.5479],[8.8412,41.5464],[8.8767,41.5243],[8.8821,41.5093],[8.9145,41.5076],[8.9218,41.4956],[8.962,41.4914],[8.9851,41.476],[9.0035,41.475],[9.0677,41.45],[9.0982,41.4433],[9.1059,41.4282],[9.0952,41.3929],[9.1246,41.3981],[9.1496,41.3853],[9.1693,41.3846],[9.1814,41.3664],[9.2193,41.3679],[9.2399,41.3971],[9.2592,41.4142],[9.2259,41.417],[9.2237,41.4426],[9.2428,41.4467],[9.2873,41.4839]]],[[[8.9112,42.4102],[8.921,42.4293],[8.9132,42.4461],[8.9189,42.498],[8.9658,42.5309],[9.0304,42.5591],[9.0377,42.5739],[9.0773,42.5788],[9.0946,42.5697],[9.0749,42.5381],[9.078,42.507],[9.0572,42.4886],[9.0843,42.4672],[9.0785,42.4276],[9.1071,42.4301],[9.135,42.4519],[9.1544,42.4484],[9.1487,42.4208],[9.1518,42.3955],[9.1121,42.3876],[9.0841,42.348],[9.0985,42.3357],[9.1449,42.3442],[9.1722,42.3201],[9.1945,42.3226],[9.2384,42.3525],[9.2262,42.3648],[9.2278,42.382],[9.2571,42.3922],[9.2709,42.4062],[9.3125,42.392],[9.3241,42.4051],[9.3281,42.4566],[9.2973,42.4846],[9.2885,42.5026],[9.2663,42.5199],[9.2323,42.5199],[9.2258,42.5495],[9.2148,42.5635],[9.2113,42.5916],[9.1728,42.6273],[9.1352,42.6444],[9.1198,42.6602],[9.0936,42.6593],[9.0834,42.6786],[9.0539,42.6809],[9.0583,42.6594],[9.0209,42.6445],[8.9484,42.6335],[8.9181,42.6369],[8.8823,42.6234],[8.8675,42.6082],[8.8496,42.6102],[8.8091,42.599],[8.8053,42.572],[8.7825,42.5567],[8.7534,42.5701],[8.7271,42.562],[8.704,42.5265],[8.6657,42.5136],[8.6751,42.4765],[8.668,42.445],[8.6546,42.4156],[8.6261,42.4207],[8.6092,42.4153],[8.6078,42.3864],[8.5949,42.3704],[8.641,42.3735],[8.6484,42.3637],[8.6816,42.3505],[8.7279,42.3401],[8.7593,42.3381],[8.7709,42.3247],[8.7898,42.3266],[8.8197,42.3179],[8.8572,42.331],[8.8979,42.3586],[8.9138,42.3751],[8.9005,42.3842],[8.9112,42.4102]],[[9.2102,42.4717],[9.2351,42.4693],[9.2619,42.4756],[9.2935,42.4665],[9.3081,42.4481],[9.277,42.445],[9.2401,42.4547],[9.2102,42.4717]]],[[[6.2503,43.0005],[6.2476,43.0187],[6.2124,43.0031],[6.1777,43.0085],[6.1685,43.0013],[6.2057,42.9823],[6.2503,43.0005]]],[[[5.1029,43.3624],[5.1483,43.3621],[5.1914,43.3297],[5.2372,43.3318],[5.2284,43.3819],[5.264,43.402],[5.1911,43.3932],[5.1717,43.4187],[5.14,43.4014],[5.0684,43.3992],[4.9971,43.4024],[4.9896,43.3889],[5.0255,43.3525],[5.02,43.3424],[5.0403,43.3283],[5.0807,43.3279],[5.1012,43.3458],[5.1029,43.3624]]],[[[5.0045,43.4038],[5.0402,43.4028],[5.0607,43.4235],[5.0534,43.4604],[5.0377,43.4707],[5.0063,43.4698],[4.9993,43.5082],[5.015,43.53],[5.0074,43.5637],[4.9448,43.623],[4.9202,43.6164],[4.8869,43.591],[4.8901,43.5594],[4.8798,43.5416],[4.9227,43.5144],[4.9799,43.4642],[4.9817,43.4323],[4.9759,43.4008],[5.0045,43.4038]]],[[[7.0456,43.9258],[7.0692,43.9192],[7.1081,43.93],[7.1069,43.9693],[7.0931,43.9917],[7.0646,43.9718],[7.0456,43.9258]]],[[[6.5064,43.0438],[6.4734,43.0471],[6.4579,43.0277],[6.4377,43.024],[6.4341,43.0067],[6.473,43.0208],[6.4891,43.0429],[6.5064,43.0438]]],[[[5.1238,43.7588],[5.1226,43.7125],[5.0698,43.7309],[5.0253,43.753],[4.9978,43.7489],[4.9816,43.7797],[4.9668,43.792],[4.9456,43.7869],[4.9096,43.8035],[4.9077,43.8183],[4.8669,43.8263],[4.8259,43.8223],[4.7644,43.7986],[4.7525,43.8166],[4.7137,43.8172],[4.7118,43.7934],[4.6974,43.7763],[4.7065,43.7589],[4.7335,43.7542],[4.7139,43.7328],[4.6729,43.7262],[4.6516,43.7123],[4.6846,43.695],[4.6962,43.7022],[4.7589,43.6935],[4.7988,43.6798],[4.8792,43.6781],[4.8994,43.671],[4.9328,43.6705],[4.9223,43.6972],[4.9267,43.7216],[4.9536,43.7283],[4.9788,43.7174],[4.9829,43.6835],[4.9541,43.6391],[4.9888,43.6181],[5.012,43.6292],[5.0125,43.6429],[5.0822,43.6254],[5.096,43.5988],[5.0631,43.5921],[5.0331,43.558],[5.0322,43.5389],[5.0587,43.5279],[5.1092,43.5254],[5.1132,43.5067],[5.1462,43.4587],[5.1906,43.4865],[5.2076,43.492],[5.2234,43.4791],[5.2511,43.4758],[5.281,43.4836],[5.3023,43.4478],[5.3294,43.4618],[5.3198,43.4773],[5.3315,43.4881],[5.3578,43.4811],[5.3875,43.4619],[5.3946,43.4046],[5.425,43.3844],[5.4753,43.3914],[5.4751,43.3505],[5.455,43.3357],[5.4727,43.3167],[5.5259,43.3218],[5.5484,43.3358],[5.5657,43.3567],[5.5447,43.3908],[5.515,43.386],[5.5072,43.3956],[5.5369,43.4231],[5.4493,43.4393],[5.4526,43.4765],[5.4826,43.4809],[5.4961,43.4633],[5.532,43.483],[5.5607,43.4817],[5.6112,43.4635],[5.5876,43.4427],[5.605,43.4309],[5.6104,43.4119],[5.6438,43.4006],[5.6814,43.4014],[5.6947,43.3642],[5.7083,43.3496],[5.7369,43.341],[5.7945,43.3452],[5.8823,43.372],[5.9533,43.3723],[5.9566,43.3365],[5.9319,43.3176],[5.9005,43.3163],[5.854,43.3304],[5.8309,43.3161],[5.8174,43.3394],[5.7789,43.331],[5.7719,43.2876],[5.7492,43.2898],[5.7267,43.3173],[5.7098,43.3162],[5.679,43.2993],[5.6568,43.2671],[5.6154,43.2701],[5.5858,43.2652],[5.5508,43.2471],[5.5217,43.2447],[5.5066,43.2268],[5.5483,43.2087],[5.5491,43.1948],[5.5696,43.1756],[5.6024,43.162],[5.6184,43.1844],[5.6409,43.1894],[5.6955,43.1684],[5.6833,43.1601],[5.6952,43.1436],[5.752,43.1328],[5.7736,43.1383],[5.7756,43.117],[5.8072,43.1158],[5.8127,43.0955],[5.8039,43.0767],[5.8209,43.0554],[5.8475,43.0497],[5.8465,43.074],[5.8546,43.0953],[5.8492,43.1216],[5.8848,43.1186],[5.8821,43.1605],[5.9024,43.1717],[5.9394,43.2159],[5.9291,43.2305],[5.9904,43.2577],[6.0169,43.2566],[6.018,43.2312],[6.0354,43.2204],[6.0331,43.1706],[6.008,43.1618],[5.9712,43.168],[5.9856,43.1232],[5.9784,43.1075],[6.006,43.1041],[6.0248,43.0921],[6.0233,43.0786],[6.0808,43.0874],[6.1259,43.078],[6.1327,43.0362],[6.1495,43.0505],[6.1547,43.0789],[6.1828,43.1086],[6.1999,43.1154],[6.2405,43.1139],[6.2761,43.1207],[6.292,43.1086],[6.3164,43.1065],[6.3322,43.0903],[6.358,43.0894],[6.36,43.1201],[6.3496,43.1301],[6.3744,43.1662],[6.4007,43.1699],[6.4259,43.2008],[6.4521,43.172],[6.4971,43.169],[6.5095,43.1565],[6.5524,43.1873],[6.6021,43.1821],[6.6215,43.1625],[6.659,43.196],[6.6643,43.2412],[6.6904,43.2541],[6.6962,43.2666],[6.6776,43.2787],[6.6619,43.2652],[6.6459,43.2739],[6.5936,43.2624],[6.5762,43.2742],[6.6661,43.3179],[6.6823,43.3411],[6.7125,43.3454],[6.7151,43.3683],[6.7466,43.4228],[6.766,43.4238],[6.7894,43.4084],[6.8285,43.4181],[6.8582,43.4147],[6.8568,43.4302],[6.89,43.4282],[6.9201,43.4496],[6.925,43.4739],[6.9121,43.4907],[6.884,43.5025],[6.8956,43.5275],[6.8589,43.5268],[6.8121,43.5138],[6.7721,43.5271],[6.772,43.5488],[6.7437,43.5578],[6.7151,43.5763],[6.6795,43.5916],[6.6621,43.5695],[6.6425,43.5676],[6.6669,43.6049],[6.6652,43.6452],[6.6797,43.6546],[6.643,43.6764],[6.6351,43.6936],[6.563,43.7083],[6.5627,43.6873],[6.5251,43.6772],[6.5269,43.6623],[6.5762,43.6532],[6.5923,43.6183],[6.6188,43.6059],[6.6121,43.5802],[6.5927,43.5878],[6.5626,43.5878],[6.5213,43.609],[6.5161,43.5913],[6.4872,43.5968],[6.4512,43.5863],[6.4243,43.5634],[6.4003,43.5586],[6.3901,43.5717],[6.3525,43.584],[6.3385,43.5644],[6.3155,43.563],[6.2728,43.5924],[6.189,43.5927],[6.1924,43.5606],[6.1865,43.5361],[6.1419,43.5564],[6.095,43.5645],[6.0656,43.5867],[6.0572,43.6169],[6.019,43.6279],[5.9635,43.617],[5.9036,43.6196],[5.9111,43.6023],[5.9157,43.5605],[5.897,43.539],[5.8277,43.5482],[5.8254,43.5701],[5.8301,43.6178],[5.8096,43.6258],[5.7978,43.6607],[5.7442,43.6566],[5.7232,43.6496],[5.6998,43.6829],[5.683,43.6929],[5.6071,43.6587],[5.5751,43.6621],[5.5323,43.6592],[5.4391,43.6811],[5.3709,43.709],[5.345,43.7125],[5.2936,43.6899],[5.2765,43.6959],[5.2623,43.7307],[5.2642,43.7443],[5.2292,43.7475],[5.1878,43.7351],[5.1238,43.7588]],[[6.1079,43.4329],[6.1143,43.4419],[6.186,43.4476],[6.1755,43.418],[6.1407,43.4163],[6.1079,43.4329]],[[5.6009,43.5021],[5.552,43.4991],[5.5317,43.5055],[5.5258,43.5282],[5.5652,43.5385],[5.5911,43.5297],[5.6186,43.5317],[5.6361,43.5146],[5.6009,43.5021]]]]},"properties":{"nom":"PROVENCE-CORSE"}},
{"type":"Feature","geometry":{"type":"MultiPolygon","coordinates":[[[[0.3784,44.0944],[0.4255,44.1159],[0.4528,44.143],[0.4742,44.119],[0.5184,44.1308],[0.5226,44.1551],[0.5383,44.1652],[0.5475,44.1971],[0.4891,44.2391],[0.4231,44.2353],[0.4156,44.2255],[0.361,44.2405],[0.3257,44.2391],[0.3004,44.3059],[0.2844,44.3225],[0.2888,44.3458],[0.2445,44.3655],[0.2075,44.3521],[0.189,44.3588],[0.1536,44.3452],[0.1365,44.317],[0.1525,44.3039],[0.1422,44.2673],[0.1559,44.2556],[0.2007,44.2495],[0.2214,44.2335],[0.167,44.1991],[0.1986,44.1702],[0.2157,44.1363],[0.2373,44.13],[0.2508,44.141],[0.2849,44.1344],[0.2805,44.1222],[0.306,44.1017],[0.3784,44.0944]]],[[[-0.7188,45.3275],[-0.704,45.2846],[-0.6882,45.2194],[-0.67,45.1693],[-0.6678,45.1267],[-0.6359,45.0743],[-0.5901,45.0425],[-0.6085,45.0154],[-0.6532,45.05],[-0.6827,45.0787],[-0.7264,45.1589],[-0.7468,45.207],[-0.7467,45.2316],[-0.7677,45.2897],[-0.8039,45.3484],[-0.8382,45.378],[-0.8975,45.4139],[-0.9339,45.4435],[-0.9741,45.4634],[-1.0053,45.4929],[-1.0394,45.5119],[-1.04,45.5362],[-1.0609,45.5597],[-1.093,45.5649],[-1.1,45.5419],[-1.1304,45.514],[-1.1523,45.4841],[-1.1504,45.4411],[-1.1602,45.4103],[-1.1585,45.3538],[-1.1611,45.3016],[-1.1689,45.25],[-1.075,45.2419],[-1.0551,45.2288],[-0.9677,45.2152],[-0.9462,45.226],[-0.9201,45.2048],[-0.9379,45.179],[-0.9515,45.1354],[-0.9277,45.1133],[-0.8866,45.0874],[-0.9117,45.0573],[-0.8955,45.0324],[-0.9658,45.016],[-0.9859,45.0034],[-0.9945,44.9708],[-0.9643,44.9271],[-0.933,44.9025],[-0.893,44.896],[-0.8812,44.8575],[-0.9051,44.8082],[-0.8814,44.7601],[-0.8374,44.7371],[-0.8236,44.7216],[-0.7301,44.6724],[-0.6941,44.6435],[-0.6619,44.609],[-0.619,44.6113],[-0.609,44.6036],[-0.6159,44.582],[-0.6017,44.5529],[-0.5663,44.5461],[-0.5192,44.5295],[-0.4774,44.522],[-0.4509,44.5235],[-0.4193,44.5162],[-0.4316,44.5042],[-0.4062,44.4929],[-0.3993,44.4705],[-0.4088,44.4536],[-0.3975,44.432],[-0.4048,44.4099],[-0.4329,44.3953],[-0.4345,44.3745],[-0.3553,44.3542],[-0.3405,44.334],[-0.3077,44.355],[-0.3055,44.3837],[-0.2821,44.3775],[-0.2969,44.3609],[-0.27,44.324],[-0.2359,44.3264],[-0.2294,44.3541],[-0.1941,44.3488],[-0.1313,44.3713],[-0.1022,44.3711],[-0.1041,44.3433],[-0.0788,44.3537],[-0.0295,44.3604],[0.0483,44.4008],[0.0973,44.3865],[0.123,44.3927],[0.1351,44.409],[0.1365,44.4357],[0.1235,44.4613],[0.1523,44.4775],[0.176,44.4732],[0.1874,44.4864],[0.2119,44.4804],[0.2747,44.504],[0.3019,44.5399],[0.3182,44.5379],[0.3469,44.565],[0.3037,44.588],[0.2928,44.6289],[0.3148,44.6337],[0.3335,44.6223],[0.3688,44.6613],[0.4173,44.6462],[0.452,44.6557],[0.4706,44.6696],[0.5091,44.6765],[0.542,44.6653],[0.5672,44.6715],[0.5837,44.6976],[0.6217,44.6925],[0.648,44.7029],[0.6558,44.6901],[0.6958,44.6914],[0.7205,44.7295],[0.7364,44.7317],[0.7465,44.751],[0.7381,44.7634],[0.6953,44.7674],[0.7026,44.7379],[0.622,44.7322],[0.6121,44.7489],[0.6403,44.7709],[0.6155,44.7787],[0.6168,44.8052],[0.6751,44.796],[0.705,44.7993],[0.6928,44.8249],[0.6667,44.8271],[0.6318,44.8454],[0.6438,44.8641],[0.6172,44.8776],[0.5643,44.8842],[0.5528,44.8899],[0.5596,44.9195],[0.5921,44.9361],[0.5869,44.9657],[0.5658,44.9652],[0.5577,44.9504],[0.527,44.9667],[0.4839,44.9612],[0.4635,44.9729],[0.4315,44.9655],[0.4078,44.968],[0.3998,44.997],[0.373,45.0198],[0.3557,44.9875],[0.3358,45.0013],[0.3104,45.001],[0.3089,44.9828],[0.2884,44.9539],[0.2495,44.9439],[0.2284,44.9302],[0.1905,44.9354],[0.2108,44.9656],[0.1784,44.9778],[0.143,44.9714],[0.107,44.9912],[0.0861,44.9859],[0.0407,45.0191],[0.0441,45.0344],[0.072,45.0748],[0.0417,45.1154],[-0.0035,45.1196],[-0.0275,45.1138],[-0.0484,45.0979],[-0.0652,45.1001],[-0.0876,45.1216],[-0.1297,45.104],[-0.1415,45.0903],[-0.192,45.0946],[-0.2189,45.1072],[-0.2457,45.1082],[-0.2753,45.1414],[-0.3076,45.1497],[-0.3374,45.1657],[-0.3627,45.1704],[-0.3908,45.1556],[-0.4029,45.1904],[-0.4209,45.2086],[-0.4052,45.2397],[-0.425,45.2484],[-0.4154,45.2691],[-0.4473,45.2864],[-0.4863,45.2936],[-0.5134,45.2864],[-0.5711,45.2999],[-0.569,45.3315],[-0.5945,45.3212],[-0.6443,45.3217],[-0.7188,45.3275]],[[0.0758,44.5016],[0.0412,44.5195],[0.0445,44.5513],[0.0639,44.5509],[0.0935,44.5038],[0.1405,44.4941],[0.1264,44.477],[0.0758,44.5016]],[[0.1768,44.6544],[0.1933,44.6633],[0.2207,44.6533],[0.1983,44.6407],[0.1768,44.6544]],[[0.3219,44.9156],[0.3365,44.9223],[0.3279,44.9428],[0.3334,44.961],[0.3674,44.9716],[0.3941,44.9604],[0.3835,44.9344],[0.369,44.9311],[0.3856,44.903],[0.37,44.8935],[0.3219,44.9156]]],[[[0.8318,44.6843],[0.8409,44.6911],[0.8117,44.7235],[0.7858,44.7221],[0.7718,44.7038],[0.7974,44.7018],[0.8318,44.6843]]],[[[0.6985,44.8739],[0.6756,44.8548],[0.6738,44.8383],[0.705,44.8316],[0.7682,44.8383],[0.7908,44.8449],[0.7821,44.8641],[0.7401,44.8845],[0.6985,44.8739]]]]},"properties":{"nom":"SUD-OUEST"}},
{"type":"Feature","geometry":{"type":"MultiPolygon","coordinates":[[[[-0.0014,43.5649],[0.0158,43.5434],[0.0293,43.5451],[0.0515,43.5194],[0.0808,43.5243],[0.1132,43.5374],[0.1123,43.5175],[0.1272,43.4988],[0.1496,43.5117],[0.1702,43.5025],[0.1886,43.5078],[0.193,43.5414],[0.1898,43.5658],[0.212,43.5719],[0.2295,43.5901],[0.2459,43.6304],[0.2323,43.6562],[0.233,43.6812],[0.2119,43.6938],[0.1604,43.7366],[0.1973,43.748],[0.2129,43.7753],[0.1908,43.7886],[0.1413,43.7811],[0.1288,43.7669],[0.0998,43.7602],[0.0447,43.7827],[0.0396,43.7572],[0.0549,43.7389],[0.0412,43.7147],[-0.0211,43.6945],[-0.041,43.703],[-0.0646,43.6954],[-0.111,43.7115],[-0.1373,43.7311],[-0.1949,43.7072],[-0.1771,43.6961],[-0.1029,43.6775],[-0.0979,43.661],[-0.1562,43.6586],[-0.2386,43.6931],[-0.2505,43.708],[-0.2125,43.7237],[-0.1973,43.7475],[-0.293,43.7397],[-0.3358,43.7537],[-0.3353,43.7626],[-0.3713,43.7718],[-0.4099,43.7666],[-0.439,43.7729],[-0.4517,43.7852],[-0.4796,43.7769],[-0.5165,43.779],[-0.5147,43.7536],[-0.54,43.7342],[-0.5679,43.7309],[-0.5719,43.7002],[-0.5365,43.696],[-0.5421,43.6604],[-0.5101,43.6456],[-0.4852,43.6466],[-0.4472,43.632],[-0.4385,43.6212],[-0.4709,43.601],[-0.4322,43.5932],[-0.4017,43.5936],[-0.394,43.5687],[-0.3536,43.5615],[-0.3361,43.5506],[-0.2904,43.5687],[-0.2604,43.5888],[-0.2461,43.5737],[-0.2371,43.5335],[-0.2746,43.5129],[-0.2693,43.5014],[-0.2287,43.4936],[-0.1987,43.5014],[-0.1754,43.4935],[-0.1718,43.4584],[-0.1406,43.4582],[-0.1322,43.448],[-0.0957,43.439],[-0.0878,43.4577],[-0.0273,43.4735],[-0.0128,43.4949],[-0.0077,43.5333],[-0.0237,43.5523],[-0.0014,43.5649]],[[-0.0066,43.5928],[-0.0335,43.6048],[-0.0436,43.6411],[-0.03,43.6599],[-0.0036,43.6217],[0.0249,43.6257],[0.0283,43.5923],[-0.0066,43.5928]]],[[[0.3784,44.0944],[0.4248,44.0836],[0.4465,44.089],[0.4856,44.0592],[0.4745,44.1048],[0.5024,44.1132],[0.5379,44.0867],[0.5711,44.0885],[0.5809,44.1064],[0.6002,44.1082],[0.6013,44.0781],[0.6317,44.0495],[0.6549,44.0418],[0.6614,44.0244],[0.6844,44.0297],[0.6969,44.011],[0.7302,44.0113],[0.7461,44.0366],[0.7641,44.0297],[0.7653,44.012],[0.7862,44.0026],[0.8092,44.0038],[0.8257,44.0298],[0.8523,44.0364],[0.8709,44.0242],[0.9164,44.0189],[0.9043,44.0429],[0.9228,44.0609],[0.9072,44.0676],[0.8849,44.0933],[0.8456,44.097],[0.8314,44.1201],[0.7951,44.1285],[0.7392,44.125],[0.7469,44.1458],[0.7329,44.1529],[0.7073,44.136],[0.651,44.1467],[0.6185,44.1646],[0.5794,44.1625],[0.5675,44.1514],[0.5383,44.1652],[0.5226,44.1551],[0.5184,44.1308],[0.4742,44.119],[0.4528,44.143],[0.4255,44.1159],[0.3784,44.0944]]],[[[-1.1628,43.1178],[-1.1362,43.0981],[-1.1305,43.0849],[-1.1579,43.0683],[-1.1588,43.0483],[-1.174,43.0376],[-1.1445,43.0233],[-1.1151,43.0236],[-1.0835,43.0113],[-1.0727,43.042],[-1.0958,43.049],[-1.0889,43.0646],[-1.0985,43.0806],[-1.143,43.1107],[-1.1382,43.1343],[-1.1007,43.144],[-1.1114,43.1724],[-1.1247,43.1828],[-1.1741,43.1786],[-1.1711,43.201],[-1.194,43.2169],[-1.232,43.2177],[-1.2593,43.2706],[-1.2978,43.2904],[-1.3518,43.3032],[-1.3884,43.2901],[-1.4132,43.2735],[-1.3825,43.2531],[-1.3871,43.1886],[-1.4019,43.1784],[-1.4076,43.1555],[-1.3729,43.1371],[-1.3552,43.1395],[-1.3377,43.122],[-1.3165,43.1132],[-1.27,43.1183],[-1.2458,43.1703],[-1.2301,43.168],[-1.2052,43.1486],[-1.2142,43.1289],[-1.1862,43.1175],[-1.1869,43.1534],[-1.1355,43.1654],[-1.1628,43.1178]]],[[[-0.9279,43.4414],[-0.8708,43.4256],[-0.8361,43.4311],[-0.8458,43.4703],[-0.8191,43.4712],[-0.8027,43.4562],[-0.7807,43.4677],[-0.7536,43.462],[-0.7311,43.4901],[-0.745,43.5046],[-0.7397,43.5252],[-0.8257,43.5131],[-0.8186,43.5394],[-0.8942,43.5498],[-0.9503,43.5323],[-0.9869,43.5402],[-0.9926,43.5044],[-1.0206,43.5057],[-1.0309,43.4873],[-1.0075,43.4749],[-0.9958,43.4373],[-0.9864,43.4254],[-0.9449,43.4238],[-0.9279,43.4414]]],[[[-0.3493,43.1623],[-0.3265,43.1459],[-0.3138,43.1639],[-0.3183,43.1938],[-0.3338,43.2169],[-0.3078,43.2422],[-0.3385,43.2801],[-0.3766,43.293],[-0.4089,43.2931],[-0.4485,43.3138],[-0.466,43.331],[-0.4864,43.3344],[-0.5147,43.3542],[-0.5224,43.341],[-0.5696,43.3674],[-0.5732,43.3526],[-0.6017,43.3578],[-0.5946,43.3824],[-0.6112,43.3863],[-0.6379,43.377],[-0.6376,43.3982],[-0.6791,43.4139],[-0.7061,43.4005],[-0.7177,43.414],[-0.7378,43.3923],[-0.7191,43.3683],[-0.7337,43.3529],[-0.7131,43.3045],[-0.6841,43.3002],[-0.6838,43.283],[-0.659,43.2734],[-0.6439,43.2438],[-0.6019,43.2486],[-0.5878,43.2603],[-0.5659,43.2465],[-0.5556,43.2267],[-0.5163,43.1889],[-0.4765,43.1813],[-0.4685,43.1673],[-0.4346,43.1596],[-0.4157,43.1697],[-0.399,43.1634],[-0.3816,43.1803],[-0.3493,43.1623]]],[[[1.9719,43.7911],[1.9856,43.7795],[2.0209,43.8024],[2.0416,43.7834],[2.0806,43.7932],[2.0579,43.8309],[2.0835,43.8675],[2.132,43.8799],[2.1046,43.9048],[2.0754,43.9086],[2.0543,43.8997],[2.0132,43.9029],[2.0197,43.9176],[2.0598,43.9308],[2.0934,43.9294],[2.1146,43.9379],[2.1138,43.9568],[2.0792,43.9815],[2.047,43.9954],[2.0718,44.0238],[2.0734,44.0489],[2.0532,44.0651],[2.024,44.0649],[2.0435,44.0901],[2.0194,44.1122],[1.9818,44.1084],[1.9688,44.1229],[1.902,44.1112],[1.9119,44.0993],[1.9095,44.0701],[1.8651,44.073],[1.8469,44.0952],[1.8304,44.0852],[1.8226,44.0624],[1.8058,44.0473],[1.7743,44.0554],[1.7335,44.052],[1.7215,44.0401],[1.6961,44.0583],[1.6644,44.0691],[1.6697,44.0895],[1.6531,44.0964],[1.6382,44.0746],[1.6084,44.0736],[1.557,44.0527],[1.5368,44.0356],[1.5211,44.0053],[1.5561,44.015],[1.6074,44.01],[1.6372,43.9948],[1.6384,43.9769],[1.6621,43.9781],[1.6562,43.9191],[1.6388,43.9197],[1.6439,43.8932],[1.6623,43.8878],[1.6777,43.8465],[1.669,43.807],[1.6788,43.795],[1.6516,43.7758],[1.6501,43.7516],[1.6891,43.7291],[1.6999,43.745],[1.7273,43.7492],[1.7292,43.7713],[1.7699,43.7646],[1.7675,43.7476],[1.7892,43.7364],[1.8448,43.7503],[1.8626,43.7609],[1.8609,43.7836],[1.872,43.8015],[1.9146,43.8001],[1.9395,43.7733],[1.9728,43.7772],[1.9719,43.7911]]],[[[1.1756,43.8046],[1.1986,43.816],[1.239,43.8148],[1.2554,43.8009],[1.2991,43.7999],[1.3281,43.7755],[1.3629,43.7646],[1.4264,43.7547],[1.4561,43.7762],[1.4816,43.7617],[1.5224,43.8065],[1.5264,43.8384],[1.5578,43.8611],[1.5344,43.8732],[1.5073,43.897],[1.47,43.8974],[1.4442,43.9068],[1.3833,43.9169],[1.3671,43.9241],[1.3546,43.9536],[1.3216,43.9265],[1.3,43.9343],[1.2511,43.9143],[1.2601,43.8939],[1.2192,43.8749],[1.2109,43.9008],[1.189,43.9089],[1.1901,43.94],[1.1634,43.9664],[1.1506,43.9988],[1.1235,43.9967],[1.0738,43.9586],[1.0458,43.9439],[1.0315,43.9535],[0.9845,43.938],[0.9524,43.8846],[0.9529,43.8545],[0.9278,43.8306],[0.9484,43.8138],[0.9807,43.8247],[0.9998,43.7982],[1.0362,43.8042],[1.0576,43.7959],[1.0407,43.7728],[1.0655,43.7643],[1.1147,43.7854],[1.1243,43.768],[1.142,43.7613],[1.175,43.7674],[1.1657,43.7855],[1.1756,43.8046]]],[[[3.0565,44.043],[3.0854,44.0308],[3.1079,44.0325],[3.1455,44.0206],[3.1647,44.026],[3.1943,44.0486],[3.2206,44.0366],[3.2241,44.0553],[3.2105,44.076],[3.2145,44.0874],[3.1944,44.116],[3.1829,44.1556],[3.2114,44.1512],[3.2356,44.1754],[3.2071,44.1902],[3.2306,44.2303],[3.1893,44.2473],[3.1651,44.2438],[3.1547,44.2729],[3.1383,44.2639],[3.1477,44.2342],[3.109,44.2332],[3.1006,44.2141],[3.1024,44.1879],[3.0712,44.1809],[3.0091,44.18],[2.9994,44.1444],[2.966,44.1393],[2.9143,44.1793],[2.8904,44.1863],[2.8749,44.1475],[2.8356,44.1103],[2.7981,44.1122],[2.8004,44.0892],[2.7912,44.069],[2.8288,44.067],[2.8506,44.0505],[2.8312,44.0338],[2.8372,44.0129],[2.8721,43.9979],[2.9292,44.0019],[2.9412,44.0346],[2.9565,44.0378],[3.018,44.0264],[3.0506,44.0316],[3.0565,44.043]]],[[[2.6515,44.0141],[2.6838,43.9968],[2.7302,43.9916],[2.7719,44.0144],[2.7874,44.0408],[2.7639,44.0524],[2.7674,44.0709],[2.7329,44.0897],[2.717,44.0824],[2.7069,44.043],[2.6558,44.0231],[2.6515,44.0141]]],[[[1.525,44.1209],[1.5729,44.1108],[1.5832,44.1479],[1.5582,44.155],[1.5377,44.1741],[1.5527,44.1934],[1.58,44.1856],[1.6127,44.2075],[1.6628,44.1885],[1.7014,44.2002],[1.6824,44.2316],[1.6817,44.2656],[1.6523,44.2528],[1.6418,44.2703],[1.6163,44.278],[1.5988,44.2583],[1.5798,44.2601],[1.5774,44.2851],[1.5588,44.313],[1.5306,44.3028],[1.5112,44.3111],[1.4748,44.3057],[1.4343,44.3298],[1.4043,44.3126],[1.388,44.3149],[1.3548,44.3336],[1.3924,44.3738],[1.4334,44.3716],[1.439,44.3565],[1.4828,44.3457],[1.5247,44.3484],[1.5177,44.3844],[1.5243,44.4072],[1.5116,44.4175],[1.5219,44.4448],[1.5386,44.4476],[1.5654,44.434],[1.5885,44.4476],[1.5792,44.4756],[1.5477,44.4658],[1.5262,44.4671],[1.5125,44.4897],[1.4574,44.4735],[1.4516,44.5017],[1.4309,44.5121],[1.3951,44.514],[1.3723,44.4988],[1.3531,44.5139],[1.3594,44.5268],[1.3844,44.5261],[1.384,44.5472],[1.364,44.5651],[1.3613,44.5865],[1.3366,44.579],[1.2921,44.555],[1.2799,44.5674],[1.2455,44.5435],[1.2496,44.5309],[1.2297,44.5165],[1.2173,44.532],[1.1883,44.5483],[1.1234,44.5439],[1.0781,44.5284],[1.0157,44.5201],[1.023,44.4755],[1.0208,44.4452],[1.0574,44.4279],[1.0643,44.3798],[1.0489,44.3624],[0.9967,44.3691],[0.9511,44.3606],[0.9597,44.3397],[0.9973,44.2916],[1.054,44.2979],[1.0795,44.3449],[1.1032,44.3462],[1.1104,44.3231],[1.1513,44.3073],[1.1982,44.2803],[1.2412,44.272],[1.2361,44.2533],[1.2661,44.2358],[1.2529,44.2106],[1.2257,44.1914],[1.2592,44.1794],[1.2722,44.1617],[1.3291,44.1704],[1.3443,44.179],[1.375,44.1733],[1.36,44.1493],[1.3712,44.1325],[1.3886,44.1303],[1.4282,44.1064],[1.4479,44.1015],[1.474,44.112],[1.525,44.1209]]],[[[0.7987,44.1501],[0.8668,44.1266],[0.8564,44.1448],[0.8287,44.1555],[0.7987,44.1501]]],[[[2.4427,44.427],[2.4626,44.4238],[2.4835,44.4001],[2.5455,44.3976],[2.5623,44.4091],[2.5532,44.4295],[2.5885,44.4371],[2.5974,44.4599],[2.5618,44.4778],[2.5436,44.5006],[2.5684,44.5202],[2.5571,44.5523],[2.5257,44.5472],[2.4625,44.5532],[2.448,44.5361],[2.4083,44.5333],[2.3621,44.4864],[2.378,44.4664],[2.3597,44.4546],[2.3166,44.4446],[2.3431,44.4205],[2.3763,44.4086],[2.4117,44.3813],[2.4321,44.3887],[2.4295,44.4063],[2.4427,44.427]]],[[[2.6664,44.5057],[2.6912,44.536],[2.7188,44.5429],[2.7349,44.5354],[2.7721,44.5661],[2.7591,44.5714],[2.7381,44.6148],[2.711,44.5997],[2.6827,44.5971],[2.6771,44.5791],[2.6526,44.5713],[2.6117,44.5992],[2.6244,44.6162],[2.6694,44.6305],[2.6941,44.632],[2.7014,44.6568],[2.6562,44.6654],[2.6613,44.6757],[2.613,44.697],[2.6069,44.7257],[2.6252,44.7317],[2.6358,44.7551],[2.6097,44.7692],[2.5991,44.7492],[2.5822,44.7515],[2.5402,44.7116],[2.4992,44.6871],[2.4798,44.6491],[2.4588,44.6604],[2.4302,44.6646],[2.4152,44.694],[2.39,44.7108],[2.3674,44.706],[2.3493,44.6892],[2.3616,44.6793],[2.3395,44.6653],[2.3351,44.6478],[2.3531,44.6403],[2.379,44.651],[2.4357,44.6391],[2.4485,44.6487],[2.4739,44.6415],[2.5415,44.6467],[2.5447,44.5836],[2.5618,44.5911],[2.605,44.5713],[2.6298,44.5469],[2.6322,44.5171],[2.6664,44.5057]]]]},"properties":{"nom":"TOULOUSE-PYRENEES"}},
{"type":"Feature","geometry":{"type":"MultiPolygon","coordinates":[[[[3.2473,45.5891],[3.217,45.6041],[3.197,45.6021],[3.1807,45.6137],[3.199,45.6326],[3.24,45.6266],[3.3037,45.6279],[3.2972,45.667],[3.2831,45.6828],[3.2478,45.6861],[3.2494,45.7056],[3.2777,45.7009],[3.2944,45.7158],[3.3343,45.7069],[3.3628,45.7161],[3.3457,45.7391],[3.2965,45.7622],[3.3133,45.7685],[3.3053,45.7922],[3.2562,45.7858],[3.2426,45.7769],[3.2057,45.7879],[3.1584,45.7885],[3.1623,45.8066],[3.1354,45.8107],[3.1221,45.8247],[3.1387,45.8483],[3.1534,45.849],[3.1784,45.8861],[3.1772,45.9029],[3.1415,45.922],[3.0919,45.9201],[3.1088,45.9543],[3.1262,45.9545],[3.1269,45.9785],[3.0946,45.9718],[3.0906,45.9553],[3.0459,45.9455],[3.0567,45.9014],[3.0906,45.9036],[3.0988,45.8648],[3.0715,45.8645],[3.0719,45.8798],[3.0438,45.8944],[3.0107,45.8908],[2.9808,45.8774],[2.9773,45.8431],[3.003,45.8342],[3.0411,45.8326],[3.0705,45.8216],[3.0779,45.8057],[3.0544,45.7895],[3.0708,45.7813],[3.0868,45.7373],[3.0741,45.72],[3.033,45.7147],[3.0575,45.6846],[3.0998,45.6806],[3.1014,45.6517],[3.0796,45.628],[3.1108,45.6215],[3.1486,45.5979],[3.1434,45.5792],[3.1916,45.5948],[3.1936,45.5705],[3.216,45.562],[3.2473,45.5891]]],[[[3.2061,45.4456],[3.2228,45.4703],[3.2083,45.4845],[3.1897,45.4665],[3.1703,45.4724],[3.138,45.4685],[3.111,45.4726],[3.1185,45.4509],[3.175,45.4382],[3.2061,45.4456]]],[[[3.123,46.2307],[3.1524,46.2183],[3.2168,46.2442],[3.2372,46.2466],[3.2408,46.263],[3.2787,46.2864],[3.3071,46.2832],[3.3201,46.2712],[3.3467,46.2969],[3.3473,46.3206],[3.3589,46.3321],[3.3375,46.359],[3.3102,46.3634],[3.3087,46.3887],[3.3208,46.3976],[3.3247,46.4352],[3.333,46.4489],[3.3252,46.5],[3.2406,46.5197],[3.1993,46.4849],[3.2179,46.458],[3.2127,46.4004],[3.1899,46.3805],[3.2139,46.3587],[3.1687,46.3079],[3.1492,46.3219],[3.1096,46.3049],[3.1389,46.2827],[3.1273,46.263],[3.123,46.2307]]],[[[2.4881,46.5676],[2.4869,46.5795],[2.4397,46.5908],[2.4086,46.5817],[2.4108,46.5676],[2.382,46.5446],[2.3841,46.5183],[2.4428,46.5209],[2.4708,46.5267],[2.4874,46.5417],[2.4881,46.5676]]],[[[0.2067,46.6375],[0.2343,46.6331],[0.2757,46.6431],[0.285,46.6549],[0.3336,46.6514],[0.3241,46.6716],[0.3541,46.6796],[0.3863,46.6687],[0.386,46.6446],[0.4275,46.6479],[0.4398,46.6412],[0.5063,46.6552],[0.4921,46.6815],[0.5082,46.693],[0.4995,46.723],[0.4709,46.7492],[0.4376,46.7695],[0.3982,46.7544],[0.3834,46.7668],[0.352,46.7571],[0.3352,46.7695],[0.3481,46.796],[0.3299,46.8119],[0.3037,46.8107],[0.2774,46.8264],[0.2598,46.8124],[0.2368,46.8293],[0.2354,46.8531],[0.2239,46.8626],[0.189,46.8548],[0.1398,46.8218],[0.1189,46.8208],[0.1126,46.7943],[0.0954,46.7834],[0.098,46.7671],[0.0665,46.772],[0.0386,46.7876],[0.0121,46.7883],[-0.0072,46.8019],[-0.0245,46.7884],[-0.019,46.7507],[0.0039,46.7175],[0.0036,46.702],[-0.0176,46.6957],[-0.017,46.6767],[0.055,46.6745],[0.0833,46.696],[0.1293,46.6802],[0.1655,46.6901],[0.1918,46.6783],[0.2067,46.6375]]],[[[1.3834,46.4421],[1.4268,46.4696],[1.4441,46.497],[1.4567,46.4965],[1.4753,46.4711],[1.5022,46.4804],[1.5107,46.5046],[1.5394,46.522],[1.5338,46.5603],[1.6177,46.5418],[1.6638,46.5394],[1.6884,46.5478],[1.7173,46.534],[1.7049,46.5152],[1.7247,46.5049],[1.7951,46.5128],[1.7847,46.5395],[1.759,46.5411],[1.7606,46.565],[1.7499,46.5819],[1.7632,46.5902],[1.8057,46.5756],[1.8092,46.555],[1.8395,46.5572],[1.868,46.5446],[1.8943,46.5484],[1.9123,46.5763],[1.9331,46.5477],[1.9602,46.5332],[1.994,46.5371],[1.9968,46.5668],[2.0168,46.575],[2.0481,46.5746],[2.0778,46.5566],[2.0899,46.536],[2.0765,46.5104],[2.1029,46.4962],[2.1223,46.4964],[2.1414,46.5181],[2.1686,46.5122],[2.2296,46.5259],[2.2497,46.5437],[2.2878,46.5321],[2.3196,46.5708],[2.3205,46.5972],[2.3043,46.6039],[2.2794,46.5925],[2.2612,46.5735],[2.2058,46.5838],[2.2162,46.6073],[2.2523,46.6276],[2.258,46.6533],[2.229,46.6882],[2.2382,46.7158],[2.2243,46.7507],[2.2601,46.7789],[2.2739,46.8171],[2.2432,46.8462],[2.2354,46.8675],[2.1965,46.8859],[2.1829,46.8615],[2.1566,46.8381],[2.1385,46.8475],[2.139,46.8886],[2.1707,46.92],[2.1601,46.9399],[2.1386,46.9578],[2.1404,46.9779],[2.1568,47.0034],[2.1417,47.0103],[2.1087,46.9974],[2.0934,47.0157],[2.0631,47.0287],[2.0807,47.0447],[2.1143,47.0395],[2.1317,47.0627],[2.1064,47.074],[2.0789,47.107],[2.0832,47.1342],[2.111,47.137],[2.1312,47.1181],[2.14,47.0919],[2.1597,47.0694],[2.1952,47.0826],[2.1757,47.0974],[2.1992,47.1172],[2.1735,47.1545],[2.1237,47.1858],[2.117,47.1967],[2.0793,47.1852],[2.0795,47.1616],[2.059,47.1527],[2.0309,47.1589],[2.0295,47.1852],[1.9741,47.1913],[1.9426,47.1664],[1.9233,47.1741],[1.9322,47.1964],[1.9082,47.2212],[1.9164,47.2357],[1.8863,47.2644],[1.7644,47.2833],[1.7061,47.2806],[1.7169,47.3145],[1.6744,47.3205],[1.641,47.3026],[1.5841,47.3099],[1.5645,47.3306],[1.5274,47.3482],[1.5258,47.3742],[1.5531,47.3772],[1.5652,47.3937],[1.5581,47.4432],[1.5313,47.4414],[1.4843,47.4506],[1.5291,47.5007],[1.5243,47.5192],[1.54,47.5416],[1.5302,47.5834],[1.5085,47.5815],[1.477,47.6066],[1.4913,47.6144],[1.5045,47.6449],[1.5403,47.6602],[1.5759,47.6532],[1.6078,47.6697],[1.6135,47.6948],[1.6621,47.7114],[1.7043,47.7105],[1.7136,47.7334],[1.6753,47.7387],[1.662,47.7838],[1.6931,47.8099],[1.7275,47.8199],[1.7552,47.801],[1.7639,47.7866],[1.8029,47.7794],[1.8448,47.7874],[1.8493,47.8186],[1.8609,47.8327],[1.906,47.8336],[1.9282,47.814],[1.9476,47.82],[1.9368,47.8635],[1.9145,47.8821],[1.9152,47.896],[1.9505,47.9027],[1.9963,47.9033],[2.0061,47.8868],[2.0567,47.8819],[2.0791,47.8716],[2.1072,47.8814],[2.0835,47.8944],[2.0641,47.9202],[2.0043,47.9215],[1.9921,47.9334],[1.9166,47.9198],[1.8881,47.9213],[1.8765,47.9015],[1.8813,47.8761],[1.8361,47.8725],[1.8098,47.8635],[1.7785,47.8736],[1.7469,47.8761],[1.7027,47.8575],[1.6436,47.8218],[1.6553,47.7989],[1.6086,47.7951],[1.6288,47.7646],[1.6135,47.7365],[1.5768,47.7251],[1.575,47.6991],[1.4976,47.6613],[1.4329,47.6512],[1.3557,47.5938],[1.3242,47.6184],[1.2733,47.5921],[1.2183,47.5934],[1.1768,47.6074],[1.1552,47.6052],[1.1328,47.5913],[1.1456,47.5767],[1.1437,47.554],[1.0984,47.5372],[1.0356,47.5282],[1.0419,47.5106],[1.0051,47.4995],[0.9674,47.5144],[0.9513,47.5305],[0.9122,47.5172],[0.8713,47.5239],[0.8472,47.5173],[0.8047,47.4696],[0.7611,47.4674],[0.7362,47.48],[0.7338,47.4969],[0.7143,47.4997],[0.663,47.4823],[0.6862,47.4522],[0.7058,47.4699],[0.7327,47.4612],[0.7102,47.4389],[0.675,47.4355],[0.6793,47.4027],[0.6661,47.3801],[0.6426,47.3726],[0.64,47.3534],[0.6103,47.3054],[0.5793,47.3062],[0.5685,47.2919],[0.5229,47.2716],[0.4916,47.285],[0.5082,47.3103],[0.4807,47.3286],[0.436,47.3097],[0.4033,47.3027],[0.3815,47.2884],[0.3568,47.2836],[0.3238,47.2642],[0.3146,47.274],[0.3513,47.2984],[0.3975,47.3176],[0.4502,47.3251],[0.498,47.3602],[0.648,47.3916],[0.6326,47.4291],[0.5538,47.4564],[0.5254,47.434],[0.4754,47.4267],[0.463,47.4124],[0.4772,47.4007],[0.4879,47.3709],[0.4332,47.3725],[0.3947,47.3675],[0.3923,47.3777],[0.3238,47.3902],[0.3082,47.381],[0.3024,47.36],[0.2845,47.3471],[0.2816,47.3312],[0.2162,47.3338],[0.1637,47.3647],[0.1478,47.347],[0.1151,47.3323],[0.0891,47.3429],[0.0639,47.3335],[0.0406,47.3429],[-0.0321,47.3543],[-0.0511,47.3392],[-0.0262,47.3275],[-0.0373,47.2922],[-0.0956,47.3167],[-0.1182,47.2986],[-0.136,47.2981],[-0.1699,47.2832],[-0.1903,47.2881],[-0.2424,47.2764],[-0.2827,47.2881],[-0.2863,47.3053],[-0.3111,47.3101],[-0.3427,47.2983],[-0.3738,47.3041],[-0.3589,47.3182],[-0.3598,47.337],[-0.3301,47.3426],[-0.3263,47.363],[-0.2986,47.3654],[-0.2939,47.4007],[-0.3768,47.4164],[-0.4248,47.4126],[-0.493,47.4185],[-0.5118,47.4029],[-0.5353,47.405],[-0.5523,47.4412],[-0.5135,47.4588],[-0.4748,47.4602],[-0.4514,47.4757],[-0.4568,47.4966],[-0.4362,47.5159],[-0.3934,47.5128],[-0.3684,47.5225],[-0.3546,47.515],[-0.3273,47.5388],[-0.3205,47.5545],[-0.3641,47.574],[-0.3886,47.5695],[-0.4113,47.6013],[-0.4277,47.6108],[-0.4623,47.587],[-0.4652,47.5763],[-0.4969,47.5674],[-0.4891,47.5392],[-0.5152,47.5124],[-0.4939,47.4999],[-0.5081,47.4895],[-0.5394,47.5186],[-0.5694,47.514],[-0.5827,47.4844],[-0.6099,47.4889],[-0.6056,47.4652],[-0.6306,47.4465],[-0.723,47.4218],[-0.7593,47.44],[-0.7974,47.4317],[-0.8926,47.4611],[-0.9506,47.4666],[-0.9675,47.4928],[-1.0075,47.4886],[-1.0402,47.5055],[-1.0725,47.5017],[-1.0787,47.4799],[-1.117,47.4498],[-1.1161,47.4355],[-1.159,47.4116],[-1.1687,47.4464],[-1.1796,47.4576],[-1.2124,47.4639],[-1.2455,47.4559],[-1.2616,47.441],[-1.293,47.4386],[-1.3009,47.416],[-1.3454,47.4194],[-1.3553,47.4348],[-1.3779,47.4452],[-1.4013,47.4281],[-1.4284,47.4296],[-1.4176,47.4013],[-1.4295,47.379],[-1.388,47.3618],[-1.4034,47.3442],[-1.4444,47.3382],[-1.4516,47.3277],[-1.4845,47.3204],[-1.5146,47.3232],[-1.5318,47.3101],[-1.5097,47.2956],[-1.5097,47.2793],[-1.4952,47.2623],[-1.4628,47.278],[-1.4438,47.2536],[-1.481,47.2263],[-1.4852,47.2144],[-1.4741,47.1867],[-1.5128,47.1893],[-1.5325,47.1839],[-1.5484,47.198],[-1.5782,47.1976],[-1.6076,47.1845],[-1.6674,47.1933],[-1.6793,47.1726],[-1.7246,47.1838],[-1.7489,47.1847],[-1.7476,47.2054],[-1.7802,47.2086],[-1.8314,47.2271],[-1.8509,47.2499],[-1.8844,47.273],[-1.9108,47.2839],[-1.9799,47.2936],[-1.9492,47.2712],[-1.9731,47.2281],[-1.9936,47.2054],[-1.9617,47.2033],[-1.8836,47.208],[-1.8651,47.2291],[-1.8185,47.2057],[-1.8112,47.194],[-1.7637,47.181],[-1.7959,47.1723],[-1.8025,47.1457],[-1.8273,47.1048],[-1.8475,47.0914],[-1.8689,47.0656],[-1.936,47.0778],[-1.9838,47.0545],[-1.9432,46.995],[-1.9167,46.9921],[-1.891,47.0009],[-1.8351,47.0111],[-1.8191,47.0496],[-1.7942,47.0624],[-1.7726,47.0484],[-1.7739,47.0261],[-1.7311,47.0352],[-1.6806,46.9995],[-1.6909,46.9688],[-1.6831,46.9386],[-1.6994,46.9225],[-1.7365,46.9115],[-1.7203,46.8845],[-1.6888,46.8907],[-1.6642,46.8747],[-1.6469,46.8792],[-1.6056,46.8746],[-1.5485,46.8601],[-1.5474,46.8728],[-1.5034,46.8808],[-1.4851,46.8926],[-1.4788,46.9181],[-1.4134,46.9453],[-1.365,46.9569],[-1.3642,47.0041],[-1.3787,47.031],[-1.3426,47.0455],[-1.3132,47.0336],[-1.2975,47.0511],[-1.2723,47.0629],[-1.246,47.0409],[-1.2121,47.0464],[-1.2097,47.0567],[-1.1715,47.0927],[-1.2281,47.1003],[-1.2302,47.1392],[-1.208,47.1453],[-1.1699,47.1705],[-1.1888,47.2201],[-1.1705,47.2554],[-1.1504,47.262],[-1.134,47.2867],[-1.138,47.2966],[-1.1159,47.3164],[-1.078,47.3178],[-1.0729,47.3025],[-1.0393,47.3124],[-1.0305,47.2951],[-1.0111,47.2877],[-0.921,47.3206],[-0.8838,47.2924],[-0.8528,47.3078],[-0.7993,47.2813],[-0.7785,47.2867],[-0.77,47.3056],[-0.7158,47.3119],[-0.6782,47.2866],[-0.6418,47.2791],[-0.6218,47.2994],[-0.5939,47.2968],[-0.6118,47.2776],[-0.613,47.2567],[-0.5844,47.2416],[-0.5324,47.2287],[-0.5615,47.1934],[-0.5896,47.1751],[-0.6141,47.1489],[-0.6429,47.1509],[-0.6668,47.1333],[-0.6794,47.1038],[-0.6492,47.0995],[-0.6463,47.0808],[-0.671,47.0588],[-0.6505,47.045],[-0.6462,47.02],[-0.589,47.0062],[-0.5649,47.0201],[-0.5567,47.0607],[-0.5918,47.0772],[-0.5658,47.103],[-0.5239,47.1087],[-0.5106,47.1206],[-0.4847,47.1109],[-0.5102,47.0955],[-0.5074,47.0833],[-0.4597,47.0821],[-0.4071,47.0665],[-0.3762,47.0202],[-0.4082,47.0062],[-0.371,46.9916],[-0.3521,46.9762],[-0.3189,46.9665],[-0.3197,46.9477],[-0.2572,46.9246],[-0.2286,46.9523],[-0.2423,46.9829],[-0.2041,46.9725],[-0.1989,46.9445],[-0.1615,46.9401],[-0.1389,46.9659],[-0.0922,46.9733],[-0.0865,46.9855],[-0.0543,46.9948],[-0.0253,46.9852],[-0.0042,46.9881],[0.0071,47.0109],[0.0388,47.0334],[0.0237,47.0452],[0.0505,47.0733],[0.0512,47.0854],[0.0214,47.1022],[0.0038,47.0888],[-0.0373,47.1077],[-0.0337,47.1213],[0.0237,47.1179],[0.0398,47.1408],[0.0363,47.16],[0.0539,47.1637],[0.0764,47.1239],[0.1351,47.1214],[0.1352,47.1071],[0.1581,47.1029],[0.1815,47.1153],[0.1982,47.0937],[0.1737,47.0674],[0.208,47.0533],[0.233,47.0646],[0.2443,47.0864],[0.3035,47.0782],[0.3438,47.0796],[0.3567,47.0663],[0.4031,47.0865],[0.4504,47.0919],[0.4513,47.1136],[0.4874,47.1152],[0.5045,47.1453],[0.4787,47.1444],[0.4894,47.1848],[0.5078,47.2031],[0.5481,47.2036],[0.5594,47.1894],[0.609,47.1886],[0.6182,47.2102],[0.6375,47.2063],[0.6485,47.2261],[0.6433,47.2441],[0.6041,47.2795],[0.6277,47.3028],[0.6647,47.3001],[0.6912,47.3133],[0.7548,47.3173],[0.7539,47.2899],[0.7737,47.2838],[0.7651,47.264],[0.7919,47.252],[0.8185,47.2602],[0.8271,47.3098],[0.8798,47.2963],[0.9108,47.2801],[0.9363,47.2946],[0.9724,47.2958],[1.0084,47.2798],[1.0319,47.243],[1.0658,47.2291],[1.076,47.2097],[1.0358,47.1683],[1.0162,47.1778],[1.0069,47.1537],[0.9735,47.1451],[0.9292,47.1178],[0.943,47.0995],[0.9734,47.077],[0.9755,47.0495],[0.9943,47.0416],[1.0003,47.0112],[0.9942,46.9741],[0.9501,46.9446],[0.9553,46.9075],[0.9402,46.8866],[0.9524,46.8772],[0.9325,46.8509],[0.9446,46.8381],[0.9392,46.8214],[0.9445,46.7825],[0.9892,46.7616],[1.0117,46.7578],[0.9872,46.7982],[1.0071,46.8206],[1.0262,46.8754],[1.0917,46.8863],[1.1132,46.8833],[1.1121,46.8561],[1.149,46.8226],[1.1371,46.8057],[1.0963,46.8025],[1.0933,46.787],[1.1591,46.7651],[1.1925,46.7593],[1.2355,46.7423],[1.2527,46.7269],[1.2535,46.7007],[1.3078,46.6605],[1.3254,46.6431],[1.2794,46.6317],[1.2648,46.6086],[1.2794,46.5799],[1.2708,46.5598],[1.2509,46.5437],[1.245,46.5246],[1.2732,46.4839],[1.258,46.4701],[1.2933,46.4541],[1.3192,46.4656],[1.333,46.4468],[1.3834,46.4421]],[[0.7297,47.4006],[0.7808,47.4083],[0.7922,47.383],[0.7396,47.3692],[0.7151,47.3773],[0.7056,47.3989],[0.7297,47.4006]],[[-0.0255,47.2827],[0.0037,47.2678],[-0.0074,47.246],[-0.0362,47.2501],[-0.0458,47.2619],[-0.0255,47.2827]],[[1.162,47.2722],[1.1735,47.2859],[1.1942,47.283],[1.2237,47.2941],[1.2411,47.2882],[1.2386,47.2641],[1.2122,47.2456],[1.2021,47.2223],[1.171,47.2158],[1.1437,47.2197],[1.1123,47.2532],[1.162,47.2722]],[[1.3258,47.5568],[1.3624,47.5787],[1.3907,47.5502],[1.3447,47.5467],[1.3258,47.5568]]],[[[0.3664,46.9908],[0.3508,46.9778],[0.3925,46.9495],[0.413,46.9694],[0.439,46.9816],[0.4245,46.9928],[0.3886,46.9788],[0.3664,46.9908]]],[[[0.6567,47.096],[0.6831,47.1174],[0.6871,47.1351],[0.6514,47.1452],[0.5867,47.1223],[0.5852,47.0828],[0.6142,47.0701],[0.6064,47.0537],[0.6346,47.0376],[0.6586,47.061],[0.6567,47.096]]],[[[2.6549,47.2077],[2.6746,47.2019],[2.734,47.2193],[2.7372,47.2326],[2.785,47.2604],[2.8641,47.2836],[2.8969,47.2971],[2.9078,47.311],[2.8766,47.3219],[2.8834,47.3466],[2.9196,47.3394],[2.9401,47.3598],[2.9637,47.3635],[2.9678,47.3793],[2.9962,47.3709],[3.0226,47.3795],[3.0575,47.3762],[3.0409,47.4172],[3.0788,47.4196],[3.1135,47.4279],[3.1218,47.4602],[3.094,47.4739],[3.0816,47.4659],[3.0483,47.4679],[3.0262,47.4608],[3.011,47.4838],[2.9668,47.5047],[2.9459,47.4933],[2.9125,47.5204],[2.9094,47.5596],[2.9219,47.5837],[2.8996,47.5998],[2.8671,47.5867],[2.8223,47.6083],[2.8145,47.6247],[2.7764,47.6442],[2.7663,47.6675],[2.7428,47.6799],[2.7476,47.7067],[2.7141,47.7134],[2.6948,47.7372],[2.7039,47.7535],[2.6724,47.761],[2.6532,47.7517],[2.6349,47.7659],[2.6221,47.7276],[2.5897,47.6954],[2.6386,47.68],[2.6508,47.6712],[2.7052,47.6562],[2.7327,47.6329],[2.7444,47.6076],[2.803,47.5809],[2.7413,47.5429],[2.7384,47.5288],[2.7671,47.5253],[2.7931,47.4977],[2.8254,47.4973],[2.8368,47.5101],[2.8745,47.5203],[2.8875,47.5104],[2.9004,47.4797],[2.9141,47.4709],[2.9308,47.4419],[2.9198,47.4105],[2.8952,47.411],[2.8528,47.4012],[2.8403,47.4248],[2.7877,47.404],[2.7662,47.3731],[2.7324,47.3728],[2.7092,47.3639],[2.7168,47.3361],[2.7368,47.3258],[2.7074,47.31],[2.7307,47.2768],[2.6996,47.2616],[2.634,47.283],[2.601,47.2981],[2.5915,47.2847],[2.5568,47.2854],[2.4791,47.2757],[2.4252,47.2249],[2.4273,47.2042],[2.4446,47.1979],[2.4224,47.1695],[2.4437,47.1417],[2.4907,47.1691],[2.5152,47.1574],[2.5417,47.178],[2.5312,47.1965],[2.5553,47.2173],[2.5714,47.203],[2.5953,47.2041],[2.6233,47.2172],[2.6549,47.2077]]],[[[0.5208,47.3537],[0.5377,47.3234],[0.5564,47.3219],[0.5934,47.3528],[0.5876,47.3688],[0.5208,47.3537]]],[[[0.528,47.5801],[0.5344,47.6005],[0.5534,47.603],[0.5544,47.621],[0.5839,47.6336],[0.5843,47.6687],[0.6148,47.6829],[0.6308,47.7095],[0.6694,47.6943],[0.6991,47.7258],[0.7159,47.7196],[0.7426,47.729],[0.7549,47.7087],[0.7765,47.7214],[0.7966,47.7139],[0.8279,47.6768],[0.8704,47.7268],[0.9073,47.7373],[0.9373,47.7265],[0.9859,47.7252],[1.0572,47.7429],[1.0739,47.7579],[1.1004,47.7587],[1.1098,47.7721],[1.0857,47.8238],[1.0844,47.845],[1.0416,47.8477],[1.0198,47.8767],[0.9725,47.8926],[0.9712,47.8798],[0.9387,47.8707],[0.913,47.8707],[0.9322,47.8373],[0.9233,47.8245],[0.8951,47.8493],[0.8779,47.8502],[0.8205,47.8148],[0.7568,47.7934],[0.7299,47.8053],[0.7029,47.7945],[0.6901,47.8244],[0.6495,47.8218],[0.6185,47.8396],[0.5988,47.823],[0.6006,47.8024],[0.5827,47.7854],[0.501,47.775],[0.4806,47.748],[0.4503,47.7438],[0.4195,47.7501],[0.4201,47.7156],[0.4041,47.6902],[0.3859,47.6943],[0.3671,47.682],[0.3805,47.6507],[0.3684,47.6377],[0.3296,47.6341],[0.3122,47.6533],[0.2499,47.6441],[0.2591,47.6123],[0.2768,47.5977],[0.3236,47.5926],[0.3391,47.5797],[0.3785,47.5684],[0.4024,47.5785],[0.4509,47.5484],[0.4989,47.5512],[0.528,47.5801]]]]},"properties":{"nom":"VAL DE LOIRE"}},
{"type":"Feature","geometry":{"type":"MultiPolygon","coordinates":[[[[3.957,43.9012],[3.9834,43.9249],[3.9725,43.9467],[3.9998,43.9504],[4.0199,43.9346],[4.0406,43.9058],[4.0643,43.9135],[4.1241,43.9461],[4.144,43.9568],[4.1535,44.0155],[4.1641,44.023],[4.1923,44],[4.2048,43.9778],[4.2447,43.9545],[4.2527,43.9422],[4.2218,43.9258],[4.1856,43.9269],[4.1613,43.9204],[4.1485,43.9048],[4.1999,43.8937],[4.2088,43.887],[4.2302,43.885],[4.2394,43.857],[4.2839,43.851],[4.2964,43.8174],[4.2842,43.8167],[4.2759,43.7996],[4.2414,43.773],[4.2461,43.7354],[4.2648,43.7192],[4.2152,43.7092],[4.2254,43.6579],[4.2393,43.6319],[4.2386,43.5889],[4.2921,43.5909],[4.287,43.568],[4.3161,43.5623],[4.3186,43.5427],[4.406,43.5596],[4.4261,43.5854],[4.4525,43.5843],[4.4753,43.6072],[4.4377,43.6119],[4.4263,43.625],[4.4508,43.6639],[4.4758,43.6713],[4.4848,43.6999],[4.4639,43.709],[4.4766,43.7338],[4.4934,43.7241],[4.5329,43.7299],[4.6123,43.7247],[4.63,43.7621],[4.6516,43.7829],[4.6515,43.8182],[4.6134,43.8478],[4.6244,43.8864],[4.6421,43.8675],[4.6923,43.8842],[4.7354,43.9167],[4.7213,43.9544],[4.7401,43.9637],[4.7748,43.9654],[4.7919,43.9524],[4.7789,43.9379],[4.7393,43.9241],[4.8212,43.9129],[4.8531,43.9113],[4.9023,43.8882],[4.9252,43.8866],[4.9754,43.8668],[4.974,43.8826],[4.9956,43.8906],[4.9678,43.9117],[4.9521,43.9628],[5.0398,43.9773],[5.0642,43.9708],[5.0868,43.9552],[5.0815,43.9149],[5.0913,43.8923],[5.069,43.8735],[5.0865,43.847],[5.0696,43.8307],[5.0821,43.82],[5.0429,43.8065],[5.0498,43.7887],[5.1238,43.7588],[5.1878,43.7351],[5.2292,43.7475],[5.2642,43.7443],[5.3166,43.7361],[5.3391,43.7202],[5.3709,43.709],[5.4391,43.6811],[5.5323,43.6592],[5.5751,43.6621],[5.6071,43.6587],[5.683,43.6929],[5.7172,43.6934],[5.7482,43.7198],[5.7811,43.7557],[5.8279,43.748],[5.8567,43.7236],[5.8918,43.728],[5.9038,43.7511],[5.9597,43.7635],[6.0025,43.7635],[6.0066,43.7703],[5.9706,43.7944],[5.9382,43.789],[5.9208,43.7982],[5.879,43.8073],[5.8455,43.7968],[5.8262,43.8112],[5.8522,43.8348],[5.8841,43.8835],[5.8896,43.91],[5.875,43.9222],[5.8503,43.9168],[5.8266,43.9226],[5.8115,43.9048],[5.8169,43.8874],[5.7828,43.8741],[5.758,43.8738],[5.7543,43.8608],[5.7041,43.8454],[5.6509,43.844],[5.6545,43.8252],[5.6226,43.8302],[5.5443,43.8183],[5.5486,43.8518],[5.5702,43.862],[5.6078,43.9148],[5.5804,43.9255],[5.5596,43.9427],[5.545,43.9389],[5.4835,43.9537],[5.4631,43.9887],[5.4408,44.0144],[5.4182,44.013],[5.3688,43.9962],[5.3147,44.0206],[5.2989,44.0894],[5.3114,44.1028],[5.315,44.1311],[5.3264,44.1596],[5.2837,44.1742],[5.2774,44.188],[5.2475,44.1936],[5.2378,44.2067],[5.2405,44.2309],[5.2212,44.2303],[5.1847,44.2673],[5.1689,44.314],[5.1355,44.333],[5.1642,44.3465],[5.1606,44.372],[5.1211,44.3889],[5.1165,44.4018],[5.136,44.4282],[5.1065,44.4402],[5.0968,44.4629],[5.0822,44.4695],[5.0767,44.5014],[5.0316,44.5064],[4.9734,44.4994],[4.8418,44.4611],[4.8394,44.4902],[4.8247,44.4978],[4.7981,44.5317],[4.766,44.5204],[4.7375,44.5223],[4.7072,44.5327],[4.6875,44.5003],[4.6992,44.4808],[4.6928,44.4426],[4.676,44.4367],[4.6648,44.4661],[4.6412,44.4641],[4.5952,44.4806],[4.5621,44.4721],[4.5205,44.486],[4.5021,44.4811],[4.4592,44.4468],[4.4518,44.4776],[4.455,44.4998],[4.4047,44.4916],[4.3727,44.4438],[4.4065,44.4113],[4.4416,44.4047],[4.4572,44.3802],[4.4316,44.3634],[4.407,44.3821],[4.3846,44.3694],[4.3877,44.3471],[4.3692,44.3397],[4.3258,44.3383],[4.3218,44.324],[4.2907,44.3089],[4.2892,44.2925],[4.3288,44.2803],[4.333,44.2606],[4.3826,44.27],[4.3971,44.2574],[4.4026,44.2284],[4.3895,44.2015],[4.4147,44.1943],[4.4094,44.1787],[4.4179,44.1269],[4.3777,44.1249],[4.357,44.1135],[4.313,44.115],[4.2917,44.1339],[4.2537,44.112],[4.2748,44.1032],[4.2731,44.0815],[4.2504,44.0636],[4.225,44.0671],[4.207,44.0557],[4.1578,44.056],[4.1401,44.0676],[4.1071,44.0743],[4.0969,44.1006],[4.0686,44.1061],[4.0559,44.135],[4.0147,44.1351],[4.0187,44.1114],[4.0125,44.0834],[4.0295,44.0582],[4.055,44.0398],[4.051,44.0229],[4.0107,44.0388],[3.978,44.0325],[3.9146,44.0498],[3.9006,44.0248],[3.8727,44.0117],[3.8376,44.0146],[3.8518,43.9851],[3.865,43.9777],[3.9247,43.9686],[3.9383,43.9397],[3.9231,43.9164],[3.9239,43.9008],[3.9322,43.8946],[3.957,43.9012]],[[4.7087,44.0838],[4.7115,44.1337],[4.7483,44.1355],[4.7793,44.1219],[4.786,44.1111],[4.7741,44.0827],[4.7372,44.0706],[4.7087,44.0838]],[[4.9422,44.054],[4.99,44.0696],[5.0149,44.0597],[5.0359,44.0223],[4.9809,43.9964],[4.9392,43.9677],[4.929,43.9677],[4.9069,44.0049],[4.9103,44.0158],[4.9364,44.0246],[4.9422,44.054]],[[4.4542,43.9666],[4.4927,44.0002],[4.5327,43.9968],[4.5433,43.952],[4.5575,43.9343],[4.5417,43.9116],[4.5225,43.9215],[4.5234,43.9361],[4.4967,43.943],[4.4879,43.9184],[4.4932,43.9049],[4.4796,43.8855],[4.4838,43.8541],[4.4988,43.8459],[4.457,43.8301],[4.4205,43.8535],[4.4258,43.8923],[4.4075,43.8958],[4.4022,43.9274],[4.4439,43.9295],[4.4423,43.9457],[4.4542,43.9666]],[[5.3579,43.8418],[5.4043,43.8457],[5.4645,43.8415],[5.4672,43.8153],[5.4188,43.8135],[5.3901,43.8024],[5.3442,43.8067],[5.3617,43.8214],[5.3579,43.8418]],[[4.8516,43.989],[4.8846,43.9816],[4.8841,43.9529],[4.8381,43.9525],[4.8537,43.9687],[4.8516,43.989]],[[4.505,44.2474],[4.5068,44.2879],[4.5295,44.2847],[4.5609,44.2644],[4.5447,44.239],[4.505,44.2474]],[[4.6532,44.2948],[4.6469,44.3487],[4.6505,44.3773],[4.677,44.4062],[4.715,44.4061],[4.7157,44.3725],[4.7287,44.3694],[4.7266,44.3395],[4.7124,44.3238],[4.7093,44.2923],[4.6978,44.2667],[4.6494,44.263],[4.6532,44.2948]]],[[[6.0564,43.7002],[6.0768,43.7071],[6.0916,43.7281],[6.0531,43.7411],[6.0003,43.727],[5.9845,43.7166],[5.9877,43.6955],[6.0216,43.6683],[6.0392,43.6786],[6.0349,43.694],[6.0564,43.7002]]],[[[4.3447,44.5233],[4.3564,44.5423],[4.3285,44.573],[4.3099,44.543],[4.3447,44.5233]]],[[[5.437,44.5708],[5.4612,44.5893],[5.4878,44.5918],[5.4826,44.6226],[5.5213,44.6428],[5.5201,44.6618],[5.5355,44.6746],[5.5546,44.6692],[5.5812,44.6905],[5.5672,44.7163],[5.5864,44.7395],[5.6078,44.736],[5.6291,44.7448],[5.5839,44.7653],[5.5819,44.7778],[5.5515,44.793],[5.5347,44.7761],[5.4816,44.786],[5.4614,44.7771],[5.4573,44.7572],[5.4092,44.7516],[5.4016,44.771],[5.3406,44.7857],[5.2922,44.8066],[5.2727,44.7811],[5.2346,44.7784],[5.2311,44.7689],[5.1942,44.7671],[5.1821,44.7855],[5.1501,44.799],[5.1304,44.78],[5.0996,44.7818],[5.0852,44.7625],[5.0857,44.7423],[5.0432,44.7174],[5.0352,44.681],[5.0471,44.6631],[5.0795,44.6708],[5.1188,44.6617],[5.1783,44.6548],[5.1802,44.6767],[5.2122,44.677],[5.2436,44.6608],[5.2404,44.649],[5.2846,44.6441],[5.2832,44.6652],[5.3289,44.6746],[5.3308,44.648],[5.3728,44.6408],[5.392,44.6278],[5.3882,44.5895],[5.4122,44.5867],[5.437,44.5708]]],[[[4.6518,44.7624],[4.7093,44.7494],[4.7123,44.7629],[4.6725,44.7754],[4.6518,44.7624]]],[[[4.7618,44.7736],[4.8009,44.7665],[4.8188,44.7706],[4.8764,44.757],[4.8907,44.8027],[4.8315,44.8129],[4.797,44.805],[4.7955,44.7936],[4.7618,44.7736]]],[[[4.7371,44.9144],[4.7355,44.8904],[4.7829,44.8772],[4.8375,44.8884],[4.8592,44.9192],[4.8864,44.9362],[4.8533,44.9783],[4.8737,44.9982],[4.9094,45.0148],[4.9391,45.0176],[4.9493,45.0389],[4.9361,45.0698],[4.9365,45.0915],[4.8856,45.1045],[4.8677,45.1166],[4.8668,45.1372],[4.8351,45.1578],[4.8127,45.1636],[4.8125,45.203],[4.8022,45.2474],[4.8107,45.2635],[4.8099,45.2881],[4.762,45.3238],[4.7742,45.3527],[4.7555,45.3661],[4.76,45.383],[4.7425,45.4127],[4.7582,45.4309],[4.7555,45.4538],[4.7814,45.4576],[4.7835,45.4729],[4.8135,45.484],[4.8615,45.5168],[4.8454,45.5243],[4.7869,45.5271],[4.7462,45.4923],[4.7292,45.4519],[4.6932,45.4271],[4.7079,45.4075],[4.7071,45.3901],[4.7231,45.3715],[4.7315,45.3329],[4.6799,45.3083],[4.7379,45.3038],[4.7719,45.2952],[4.7884,45.2722],[4.7592,45.2688],[4.7593,45.2264],[4.7493,45.2009],[4.7135,45.1939],[4.7216,45.1681],[4.7423,45.1849],[4.7677,45.1747],[4.7821,45.1515],[4.7608,45.1413],[4.7494,45.1152],[4.7707,45.0895],[4.7613,45.0799],[4.774,45.0576],[4.7706,45.0443],[4.8129,45.015],[4.8009,44.9961],[4.8301,44.9927],[4.8132,44.9623],[4.7928,44.9585],[4.7788,44.9222],[4.7371,44.9144]]]]},"properties":{"nom":"VALLEE DU RHÔNE"}}
]}